"Member-branch +931674647961271 is created" : {"countryCount":0,"countryCode":"+93","countryName":"Afghanistan","mobileNum":"1674647961271","cellNum":"+931674647961271","countryFname":"Auto_fName","countryLname":"Auto_lName","password":"555555","smsCode":"555555","type":"Collection Point","branchName":"BR_Auto_Name_1674647970016","location":"BR_Auto_location_1674647970016","email":"+931674647961271@plasticBank.com","plasticDetails":[{"plasticName":"Mixed Plastic","randValPerKg":"9.95","randKgInv":"8.95"},{"plasticName":"HDPE","randValPerKg":"1.94","randKgInv":"3.54"},{"plasticName":"PET","randValPerKg":"9.63","randKgInv":"1.86"},{"plasticName":"PP","randValPerKg":"5.19","randKgInv":"5.43"},{"plasticName":"PS","randValPerKg":"2.44","randKgInv":"8.65"},{"plasticName":"LDPE","randValPerKg":"6.74","randKgInv":"1.67"},{"plasticName":"PVC","randValPerKg":"4.64","randKgInv":"1.57"},{"plasticName":"ABS","randValPerKg":"9.13","randKgInv":"6.53"},{"plasticName":"Caps","randValPerKg":"1.64","randKgInv":"4.02"},{"plasticName":"MALUTONG","randValPerKg":"3.92","randKgInv":"4.99"},{"plasticName":"MALUTONG","randValPerKg":"6.01","randKgInv":"8.23"}],"brType":"Collection Point"},
"Member-branch +931674648244155 is created" : {"countryCount":0,"countryCode":"+93","countryName":"Afghanistan","mobileNum":"1674648244155","cellNum":"+931674648244155","countryFname":"Auto_fName","countryLname":"Auto_lName","password":"555555","smsCode":"555555","type":"Collection Point","branchName":"BR_Auto_Name_1674648252651","location":"BR_Auto_location_1674648252651","email":"+931674648244155@plasticBank.com","plasticDetails":[{"plasticName":"Mixed Plastic","randValPerKg":"8.89","randKgInv":"5.54"},{"plasticName":"HDPE","randValPerKg":"2.18","randKgInv":"4.45"},{"plasticName":"PET","randValPerKg":"9.98","randKgInv":"3.83"},{"plasticName":"PP","randValPerKg":"2.32","randKgInv":"9.61"},{"plasticName":"PS","randValPerKg":"7.35","randKgInv":"6.50"},{"plasticName":"LDPE","randValPerKg":"1.15","randKgInv":"5.36"},{"plasticName":"PVC","randValPerKg":"8.44","randKgInv":"4.52"},{"plasticName":"ABS","randValPerKg":"2.25","randKgInv":"9.05"},{"plasticName":"Caps","randValPerKg":"9.34","randKgInv":"8.98"},{"plasticName":"MALUTONG","randValPerKg":"5.50","randKgInv":"7.55"},{"plasticName":"MALUTONG","randValPerKg":"4.21","randKgInv":"9.68"}],"brType":"Collection Point"},
"Member-branch +931674648516559 is created" : {"countryCount":0,"countryCode":"+93","countryName":"Afghanistan","mobileNum":"1674648516559","cellNum":"+931674648516559","countryFname":"Auto_fName","countryLname":"Auto_lName","password":"555555","smsCode":"555555","type":"Collection Point","branchName":"BR_Auto_Name_1674648525294","location":"BR_Auto_location_1674648525294","email":"+931674648516559@plasticBank.com","plasticDetails":[{"plasticName":"Mixed Plastic","randValPerKg":"6.48","randKgInv":"5.28"},{"plasticName":"HDPE","randValPerKg":"4.18","randKgInv":"7.31"},{"plasticName":"PET","randValPerKg":"1.66","randKgInv":"9.33"},{"plasticName":"PP","randValPerKg":"3.63","randKgInv":"3.09"},{"plasticName":"PS","randValPerKg":"9.97","randKgInv":"6.85"},{"plasticName":"LDPE","randValPerKg":"7.31","randKgInv":"7.99"},{"plasticName":"PVC","randValPerKg":"8.58","randKgInv":"4.27"},{"plasticName":"ABS","randValPerKg":"7.26","randKgInv":"9.92"},{"plasticName":"Caps","randValPerKg":"9.77","randKgInv":"2.29"},{"plasticName":"MALUTONG","randValPerKg":"3.72","randKgInv":"2.21"},{"plasticName":"MALUTONG","randValPerKg":"6.48","randKgInv":"5.01"}],"brType":"Collection Point"},
"Member-branch +931674648603266 is created" : {"countryCount":0,"countryCode":"+93","countryName":"Afghanistan","mobileNum":"1674648603266","cellNum":"+931674648603266","countryFname":"Auto_fName","countryLname":"Auto_lName","password":"555555","smsCode":"555555","type":"Collection Point","branchName":"BR_Auto_Name_1674648611913","location":"BR_Auto_location_1674648611913","email":"+931674648603266@plasticBank.com","plasticDetails":[{"plasticName":"Mixed Plastic","randValPerKg":"9.11","randKgInv":"8.65"},{"plasticName":"HDPE","randValPerKg":"3.92","randKgInv":"5.08"},{"plasticName":"PET","randValPerKg":"1.33","randKgInv":"1.36"},{"plasticName":"PP","randValPerKg":"3.85","randKgInv":"9.14"},{"plasticName":"PS","randValPerKg":"6.21","randKgInv":"1.87"},{"plasticName":"LDPE","randValPerKg":"4.83","randKgInv":"3.63"},{"plasticName":"PVC","randValPerKg":"3.80","randKgInv":"3.01"},{"plasticName":"ABS","randValPerKg":"7.99","randKgInv":"4.00"},{"plasticName":"Caps","randValPerKg":"5.39","randKgInv":"6.78"},{"plasticName":"MALUTONG","randValPerKg":"3.98","randKgInv":"7.60"},{"plasticName":"MALUTONG","randValPerKg":"2.62","randKgInv":"2.81"}],"brType":"Collection Point"},
"Members of Collection Point +931674648516559" : [{"name":"Member_1674648694470","countryCode":"+93","memberNum":"1674648694470","countryCount":0,"brType":"Collection Point"},{"name":"Member_1674648706526","countryCode":"+93","memberNum":"1674648706526","countryCount":0,"brType":"Collection Point"},{"name":"Member_1674648718112","countryCode":"+93","memberNum":"1674648718112","countryCount":0,"brType":"Collection Point"},{"name":"Member_1674648729605","countryCode":"+93","memberNum":"1674648729605","countryCount":0,"brType":"Collection Point"},{"name":"Member_1674648741127","countryCode":"+93","memberNum":"1674648741127","countryCount":0,"brType":"Collection Point"},{"name":"Member_1674648753157","countryCode":"+93","memberNum":"1674648753157","countryCount":0,"brType":"Collection Point"},{"name":"Member_1674648764661","countryCode":"+93","memberNum":"1674648764661","countryCount":0,"brType":"Collection Point"},{"name":"Member_1674648776640","countryCode":"+93","memberNum":"1674648776640","countryCount":0,"brType":"Collection Point"},{"name":"Member_1674648789102","countryCode":"+93","memberNum":"1674648789102","countryCount":0,"brType":"Collection Point"},{"name":"Member_1674648801547","countryCode":"+93","memberNum":"1674648801547","countryCount":0,"brType":"Collection Point"}],
"Member-branch +931674649120621 is created" : {"countryCount":0,"countryCode":"+93","countryName":"Afghanistan","mobileNum":"1674649120621","cellNum":"+931674649120621","countryFname":"Auto_fName","countryLname":"Auto_lName","password":"555555","smsCode":"555555","type":"Collection Point","branchName":"BR_Auto_Name_1674649129257","location":"BR_Auto_location_1674649129257","email":"+931674649120621@plasticBank.com","plasticDetails":[{"plasticName":"Mixed Plastic","randValPerKg":"5.71","randKgInv":"9.83"},{"plasticName":"HDPE","randValPerKg":"3.30","randKgInv":"5.61"},{"plasticName":"PET","randValPerKg":"4.25","randKgInv":"8.97"},{"plasticName":"PP","randValPerKg":"2.47","randKgInv":"4.19"},{"plasticName":"PS","randValPerKg":"3.69","randKgInv":"5.25"},{"plasticName":"LDPE","randValPerKg":"6.27","randKgInv":"4.53"},{"plasticName":"PVC","randValPerKg":"2.26","randKgInv":"5.42"},{"plasticName":"ABS","randValPerKg":"8.28","randKgInv":"1.14"},{"plasticName":"Caps","randValPerKg":"6.20","randKgInv":"9.87"},{"plasticName":"MALUTONG","randValPerKg":"2.31","randKgInv":"8.84"},{"plasticName":"MALUTONG","randValPerKg":"3.77","randKgInv":"6.00"}],"brType":"Collection Point"},
"Member-branch +931674649210337 is created" : {"countryCount":0,"countryCode":"+93","countryName":"Afghanistan","mobileNum":"1674649210337","cellNum":"+931674649210337","countryFname":"Auto_fName","countryLname":"Auto_lName","password":"555555","smsCode":"555555","type":"Collection Point","branchName":"BR_Auto_Name_1674649219028","location":"BR_Auto_location_1674649219028","email":"+931674649210337@plasticBank.com","plasticDetails":[{"plasticName":"Mixed Plastic","randValPerKg":"9.35","randKgInv":"4.27"},{"plasticName":"HDPE","randValPerKg":"6.81","randKgInv":"6.87"},{"plasticName":"PET","randValPerKg":"5.00","randKgInv":"1.17"},{"plasticName":"PP","randValPerKg":"5.48","randKgInv":"8.78"},{"plasticName":"PS","randValPerKg":"9.58","randKgInv":"6.16"},{"plasticName":"LDPE","randValPerKg":"5.91","randKgInv":"5.88"},{"plasticName":"PVC","randValPerKg":"1.83","randKgInv":"7.17"},{"plasticName":"ABS","randValPerKg":"3.12","randKgInv":"7.42"},{"plasticName":"Caps","randValPerKg":"8.46","randKgInv":"4.50"},{"plasticName":"MALUTONG","randValPerKg":"4.61","randKgInv":"6.34"},{"plasticName":"MALUTONG","randValPerKg":"8.90","randKgInv":"4.01"}],"brType":"Collection Point"},
"Members of Collection Point +931674649120621" : [{"name":"Member_1674649301467","countryCode":"+93","memberNum":"1674649301467","countryCount":0,"brType":"Collection Point"},{"name":"Member_1674649314214","countryCode":"+93","memberNum":"1674649314214","countryCount":0,"brType":"Collection Point"},{"name":"Member_1674649326243","countryCode":"+93","memberNum":"1674649326243","countryCount":0,"brType":"Collection Point"},{"name":"Member_1674649338202","countryCode":"+93","memberNum":"1674649338202","countryCount":0,"brType":"Collection Point"},{"name":"Member_1674649349751","countryCode":"+93","memberNum":"1674649349751","countryCount":0,"brType":"Collection Point"},{"name":"Member_1674649361346","countryCode":"+93","memberNum":"1674649361346","countryCount":0,"brType":"Collection Point"},{"name":"Member_1674649373293","countryCode":"+93","memberNum":"1674649373293","countryCount":0,"brType":"Collection Point"},{"name":"Member_1674649385289","countryCode":"+93","memberNum":"1674649385289","countryCount":0,"brType":"Collection Point"},{"name":"Member_1674649396718","countryCode":"+93","memberNum":"1674649396718","countryCount":0,"brType":"Collection Point"},{"name":"Member_1674649408281","countryCode":"+93","memberNum":"1674649408281","countryCount":0,"brType":"Collection Point"}],
"Member-branch +931674649885918 is created" : {"countryCount":0,"countryCode":"+93","countryName":"Afghanistan","mobileNum":"1674649885918","cellNum":"+931674649885918","countryFname":"Auto_fName","countryLname":"Auto_lName","password":"555555","smsCode":"555555","type":"Collection Point","branchName":"BR_Auto_Name_1674649894805","location":"BR_Auto_location_1674649894805","email":"+931674649885918@plasticBank.com","plasticDetails":[{"plasticName":"Mixed Plastic","randValPerKg":"1.18","randKgInv":"1.28"},{"plasticName":"HDPE","randValPerKg":"5.08","randKgInv":"3.28"},{"plasticName":"PET","randValPerKg":"9.82","randKgInv":"8.23"},{"plasticName":"PP","randValPerKg":"3.98","randKgInv":"4.35"},{"plasticName":"PS","randValPerKg":"5.34","randKgInv":"8.98"},{"plasticName":"LDPE","randValPerKg":"4.51","randKgInv":"4.83"},{"plasticName":"PVC","randValPerKg":"6.65","randKgInv":"5.22"},{"plasticName":"ABS","randValPerKg":"3.77","randKgInv":"1.65"},{"plasticName":"Caps","randValPerKg":"8.53","randKgInv":"4.63"},{"plasticName":"MALUTONG","randValPerKg":"4.60","randKgInv":"4.63"},{"plasticName":"MALUTONG","randValPerKg":"6.70","randKgInv":"5.28"}],"brType":"Collection Point"},
"Member-branch +931674649976371 is created" : {"countryCount":0,"countryCode":"+93","countryName":"Afghanistan","mobileNum":"1674649976371","cellNum":"+931674649976371","countryFname":"Auto_fName","countryLname":"Auto_lName","password":"555555","smsCode":"555555","type":"Collection Point","branchName":"BR_Auto_Name_1674649985065","location":"BR_Auto_location_1674649985065","email":"+931674649976371@plasticBank.com","plasticDetails":[{"plasticName":"Mixed Plastic","randValPerKg":"7.03","randKgInv":"9.32"},{"plasticName":"HDPE","randValPerKg":"1.08","randKgInv":"5.58"},{"plasticName":"PET","randValPerKg":"1.06","randKgInv":"8.18"},{"plasticName":"PP","randValPerKg":"1.37","randKgInv":"6.38"},{"plasticName":"PS","randValPerKg":"8.80","randKgInv":"3.47"},{"plasticName":"LDPE","randValPerKg":"8.50","randKgInv":"3.43"},{"plasticName":"PVC","randValPerKg":"10.00","randKgInv":"8.88"},{"plasticName":"ABS","randValPerKg":"7.19","randKgInv":"3.65"},{"plasticName":"Caps","randValPerKg":"5.14","randKgInv":"4.08"},{"plasticName":"MALUTONG","randValPerKg":"2.58","randKgInv":"1.43"},{"plasticName":"MALUTONG","randValPerKg":"3.47","randKgInv":"8.12"}],"brType":"Collection Point"},
"Members of Collection Point +931674649885918" : [{"name":"Member_1674650112415","countryCode":"+93","memberNum":"1674650112415","countryCount":0,"brType":"Collection Point"},{"name":"Member_1674650124464","countryCode":"+93","memberNum":"1674650124464","countryCount":0,"brType":"Collection Point"},{"name":"Member_1674650136488","countryCode":"+93","memberNum":"1674650136488","countryCount":0,"brType":"Collection Point"},{"name":"Member_1674650148067","countryCode":"+93","memberNum":"1674650148067","countryCount":0,"brType":"Collection Point"},{"name":"Member_1674650159597","countryCode":"+93","memberNum":"1674650159597","countryCount":0,"brType":"Collection Point"},{"name":"Member_1674650171560","countryCode":"+93","memberNum":"1674650171560","countryCount":0,"brType":"Collection Point"},{"name":"Member_1674650183587","countryCode":"+93","memberNum":"1674650183587","countryCount":0,"brType":"Collection Point"},{"name":"Member_1674650195141","countryCode":"+93","memberNum":"1674650195141","countryCount":0,"brType":"Collection Point"},{"name":"Member_1674650206664","countryCode":"+93","memberNum":"1674650206664","countryCount":0,"brType":"Collection Point"},{"name":"Member_1674650218200","countryCode":"+93","memberNum":"1674650218200","countryCount":0,"brType":"Collection Point"}],
"Member-branch +931674650574469 is created" : {"countryCount":0,"countryCode":"+93","countryName":"Afghanistan","mobileNum":"1674650574469","cellNum":"+931674650574469","countryFname":"Auto_fName","countryLname":"Auto_lName","password":"555555","smsCode":"555555","type":"Collection Point","branchName":"BR_Auto_Name_1674650583089","location":"BR_Auto_location_1674650583089","email":"+931674650574469@plasticBank.com","plasticDetails":[{"plasticName":"Mixed Plastic","randValPerKg":"3.00","randKgInv":"9.94"},{"plasticName":"HDPE","randValPerKg":"2.66","randKgInv":"5.18"},{"plasticName":"PET","randValPerKg":"6.39","randKgInv":"3.97"},{"plasticName":"PP","randValPerKg":"7.09","randKgInv":"5.08"},{"plasticName":"PS","randValPerKg":"1.38","randKgInv":"9.29"},{"plasticName":"LDPE","randValPerKg":"8.75","randKgInv":"5.20"},{"plasticName":"PVC","randValPerKg":"3.44","randKgInv":"1.02"},{"plasticName":"ABS","randValPerKg":"3.68","randKgInv":"5.06"},{"plasticName":"Caps","randValPerKg":"6.28","randKgInv":"9.09"},{"plasticName":"MALUTONG","randValPerKg":"8.53","randKgInv":"4.81"},{"plasticName":"MALUTONG","randValPerKg":"6.15","randKgInv":"1.74"}],"brType":"Collection Point"},
"Member-branch +931674650663817 is created" : {"countryCount":0,"countryCode":"+93","countryName":"Afghanistan","mobileNum":"1674650663817","cellNum":"+931674650663817","countryFname":"Auto_fName","countryLname":"Auto_lName","password":"555555","smsCode":"555555","type":"Collection Point","branchName":"BR_Auto_Name_1674650672466","location":"BR_Auto_location_1674650672466","email":"+931674650663817@plasticBank.com","plasticDetails":[{"plasticName":"Mixed Plastic","randValPerKg":"8.34","randKgInv":"5.18"},{"plasticName":"HDPE","randValPerKg":"4.35","randKgInv":"3.95"},{"plasticName":"PET","randValPerKg":"9.33","randKgInv":"6.21"},{"plasticName":"PP","randValPerKg":"8.02","randKgInv":"8.11"},{"plasticName":"PS","randValPerKg":"3.42","randKgInv":"6.63"},{"plasticName":"LDPE","randValPerKg":"2.86","randKgInv":"2.69"},{"plasticName":"PVC","randValPerKg":"5.10","randKgInv":"8.63"},{"plasticName":"ABS","randValPerKg":"1.76","randKgInv":"8.66"},{"plasticName":"Caps","randValPerKg":"9.22","randKgInv":"4.15"},{"plasticName":"MALUTONG","randValPerKg":"9.48","randKgInv":"6.93"},{"plasticName":"MALUTONG","randValPerKg":"3.58","randKgInv":"3.12"}],"brType":"Collection Point"},
"Members of Collection Point +931674650574469" : [{"name":"Member_1674650764630","countryCode":"+93","memberNum":"1674650764630","countryCount":0,"brType":"Collection Point"},{"name":"Member_1674650776760","countryCode":"+93","memberNum":"1674650776760","countryCount":0,"brType":"Collection Point"},{"name":"Member_1674650788252","countryCode":"+93","memberNum":"1674650788252","countryCount":0,"brType":"Collection Point"},{"name":"Member_1674650799832","countryCode":"+93","memberNum":"1674650799832","countryCount":0,"brType":"Collection Point"},{"name":"Member_1674650811413","countryCode":"+93","memberNum":"1674650811413","countryCount":0,"brType":"Collection Point"},{"name":"Member_1674650822873","countryCode":"+93","memberNum":"1674650822873","countryCount":0,"brType":"Collection Point"},{"name":"Member_1674650834466","countryCode":"+93","memberNum":"1674650834466","countryCount":0,"brType":"Collection Point"},{"name":"Member_1674650846400","countryCode":"+93","memberNum":"1674650846400","countryCount":0,"brType":"Collection Point"},{"name":"Member_1674650857861","countryCode":"+93","memberNum":"1674650857861","countryCount":0,"brType":"Collection Point"},{"name":"Member_1674650869312","countryCode":"+93","memberNum":"1674650869312","countryCount":0,"brType":"Collection Point"}],
"Member-branch +931674651696904 is created" : {"countryCount":0,"countryCode":"+93","countryName":"Afghanistan","mobileNum":"1674651696904","cellNum":"+931674651696904","countryFname":"Auto_fName","countryLname":"Auto_lName","password":"555555","smsCode":"555555","type":"Collection Point","branchName":"BR_Auto_Name_1674651705500","location":"BR_Auto_location_1674651705500","email":"+931674651696904@plasticBank.com","plasticDetails":[{"plasticName":"Mixed Plastic","randValPerKg":"5.13","randKgInv":"5.73"},{"plasticName":"HDPE","randValPerKg":"7.10","randKgInv":"6.02"},{"plasticName":"PET","randValPerKg":"3.47","randKgInv":"1.47"},{"plasticName":"PP","randValPerKg":"4.19","randKgInv":"3.04"},{"plasticName":"PS","randValPerKg":"9.96","randKgInv":"4.07"},{"plasticName":"LDPE","randValPerKg":"4.01","randKgInv":"8.54"},{"plasticName":"PVC","randValPerKg":"2.23","randKgInv":"8.55"},{"plasticName":"ABS","randValPerKg":"6.42","randKgInv":"4.36"},{"plasticName":"Caps","randValPerKg":"9.02","randKgInv":"3.14"},{"plasticName":"MALUTONG","randValPerKg":"5.68","randKgInv":"7.54"},{"plasticName":"MALUTONG","randValPerKg":"3.55","randKgInv":"6.06"}],"brType":"Collection Point"},




"+931674921371329" : {"countryCount":0,"countryCode":"+93","countryName":"Afghanistan","mobileNum":"1674921371329","cellNum":"+931674921371329","countryFname":"Auto_fName","countryLname":"Auto_lName","password":"555555","smsCode":"555555"},
"Member +931674921403464 is created" : {"countryCount":0,"countryCode":"+93","countryName":"Afghanistan","mobileNum":"1674921403464","cellNum":"+931674921403464","countryFname":"Auto_fName","countryLname":"Auto_lName","password":"555555","smsCode":"555555","type":"Collection Point","branchName":"BR_Auto_Name_1674921412339","location":"BR_Auto_location_1674921412339","email":"+931674921403464@plasticBank.com","plasticDetails":[{"plasticName":"Mixed Plastic","randValPerKg":"3.27","randKgInv":"2.61"},{"plasticName":"HDPE","randValPerKg":"3.19","randKgInv":"1.45"},{"plasticName":"PET","randValPerKg":"2.95","randKgInv":"8.11"},{"plasticName":"PP","randValPerKg":"6.16","randKgInv":"3.58"},{"plasticName":"PS","randValPerKg":"5.87","randKgInv":"5.96"},{"plasticName":"LDPE","randValPerKg":"8.10","randKgInv":"6.30"},{"plasticName":"PVC","randValPerKg":"1.08","randKgInv":"2.38"},{"plasticName":"ABS","randValPerKg":"4.38","randKgInv":"5.20"},{"plasticName":"Caps","randValPerKg":"8.53","randKgInv":"1.93"},{"plasticName":"MALUTONG","randValPerKg":"9.86","randKgInv":"4.36"},{"plasticName":"MALUTONG","randValPerKg":"1.11","randKgInv":"6.90"}],"brType":"Collection Point"},
"Member-branch +931675124435211 is created" : {"countryCount":0,"countryCode":"+93","countryName":"Afghanistan","mobileNum":"1675124435211","cellNum":"+931675124435211","countryFname":"Auto_fName","countryLname":"Auto_lName","password":"555555","smsCode":"555555","type":"Collection Point","branchName":"BR_Auto_Name_1675124443901","location":"BR_Auto_location_1675124443901","email":"+931675124435211@plasticBank.com","plasticDetails":[{"plasticName":"Mixed Plastic","randValPerKg":"8.08","randKgInv":"7.13"},{"plasticName":"HDPE","randValPerKg":"2.14","randKgInv":"9.08"},{"plasticName":"PET","randValPerKg":"3.94","randKgInv":"6.03"},{"plasticName":"PP","randValPerKg":"9.08","randKgInv":"2.58"},{"plasticName":"PS","randValPerKg":"8.82","randKgInv":"9.50"},{"plasticName":"LDPE","randValPerKg":"3.21","randKgInv":"6.61"},{"plasticName":"PVC","randValPerKg":"3.46","randKgInv":"2.40"},{"plasticName":"ABS","randValPerKg":"2.51","randKgInv":"2.09"},{"plasticName":"Caps","randValPerKg":"6.74","randKgInv":"9.01"},{"plasticName":"MALUTONG","randValPerKg":"4.86","randKgInv":"3.53"},{"plasticName":"MALUTONG","randValPerKg":"5.70","randKgInv":"3.02"}],"brType":"Collection Point"},
"Member-branch +931675125271468 is created" : {"countryCount":0,"countryCode":"+93","countryName":"Afghanistan","mobileNum":"1675125271468","cellNum":"+931675125271468","countryFname":"Auto_fName","countryLname":"Auto_lName","password":"555555","smsCode":"555555","type":"Collection Point","branchName":"BR_Auto_Name_1675125280494","location":"BR_Auto_location_1675125280494","email":"+931675125271468@plasticBank.com","plasticDetails":[{"plasticName":"Mixed Plastic","randValPerKg":"1.97","randKgInv":"5.22"},{"plasticName":"HDPE","randValPerKg":"5.39","randKgInv":"7.50"},{"plasticName":"PET","randValPerKg":"7.42","randKgInv":"7.74"},{"plasticName":"PP","randValPerKg":"6.52","randKgInv":"4.83"},{"plasticName":"PS","randValPerKg":"5.21","randKgInv":"7.27"},{"plasticName":"LDPE","randValPerKg":"4.06","randKgInv":"3.05"},{"plasticName":"PVC","randValPerKg":"8.74","randKgInv":"3.22"},{"plasticName":"ABS","randValPerKg":"7.48","randKgInv":"3.10"},{"plasticName":"Caps","randValPerKg":"8.44","randKgInv":"8.54"},{"plasticName":"MALUTONG","randValPerKg":"6.83","randKgInv":"3.29"},{"plasticName":"MALUTONG","randValPerKg":"3.55","randKgInv":"4.27"}],"brType":"Collection Point"},
"Member-branch +651675143443114 is created" : {"countryCount":0,"countryCode":"+65","countryName":"Philippines","mobileNum":"1675143443114","cellNum":"+651675143443114","countryFname":"Auto_fName","countryLname":"Auto_lName","password":"555555","smsCode":"555555","type":"Collection Point","branchName":"BR_Auto_Name_1675143451932","location":"BR_Auto_location_1675143451932","email":"+651675143443114@plasticBank.com","plasticDetails":[{"plasticName":"Mixed Plastic","randValPerKg":"9.96","randKgInv":"8.14"},{"plasticName":"HDPE","randValPerKg":"8.96","randKgInv":"6.64"},{"plasticName":"PET","randValPerKg":"9.03","randKgInv":"8.97"},{"plasticName":"PP","randValPerKg":"4.78","randKgInv":"1.24"},{"plasticName":"PS","randValPerKg":"2.56","randKgInv":"3.68"},{"plasticName":"LDPE","randValPerKg":"8.52","randKgInv":"4.79"},{"plasticName":"PVC","randValPerKg":"1.87","randKgInv":"8.79"},{"plasticName":"ABS","randValPerKg":"8.38","randKgInv":"2.25"},{"plasticName":"Caps","randValPerKg":"1.56","randKgInv":"8.55"},{"plasticName":"MALUTONG","randValPerKg":"5.77","randKgInv":"7.30"},{"plasticName":"MALUTONG","randValPerKg":"1.37","randKgInv":"9.53"}],"brType":"Collection Point"},
"Member-branch +651675143791656 is created" : {"countryCount":0,"countryCode":"+65","countryName":"Philippines","mobileNum":"1675143791656","cellNum":"+651675143791656","countryFname":"Auto_fName","countryLname":"Auto_lName","password":"555555","smsCode":"555555","type":"Collection Point","branchName":"BR_Auto_Name_1675143800512","location":"BR_Auto_location_1675143800512","email":"+651675143791656@plasticBank.com","plasticDetails":[{"plasticName":"Mixed Plastic","randValPerKg":"1.13","randKgInv":"7.97"},{"plasticName":"HDPE","randValPerKg":"2.58","randKgInv":"3.35"},{"plasticName":"PET","randValPerKg":"2.59","randKgInv":"8.20"}],"brType":"Collection Point"},
"Member-branch +651675144246950 is created" : {"countryCount":0,"countryCode":"+65","countryName":"Philippines","mobileNum":"1675144246950","cellNum":"+651675144246950","countryFname":"Auto_fName","countryLname":"Auto_lName","password":"555555","smsCode":"555555","type":"Collection Point","branchName":"BR_Auto_Name_1675144256747","location":"BR_Auto_location_1675144256747","email":"+651675144246950@plasticBank.com","plasticDetails":[{"plasticName":"Mixed Plastic","randValPerKg":"2.56","randKgInv":"9.20"},{"plasticName":"HDPE","randValPerKg":"3.18","randKgInv":"3.96"},{"plasticName":"PET","randValPerKg":"7.79","randKgInv":"6.62"}],"brType":"Collection Point"},
"Member-branch +651675145037328 is created" : {"countryCount":0,"countryCode":"+65","countryName":"Philippines","mobileNum":"1675145037328","cellNum":"+651675145037328","countryFname":"Auto_fName","countryLname":"Auto_lName","password":"555555","smsCode":"555555","type":"Collection Point","branchName":"BR_Auto_Name_1675145046285","location":"BR_Auto_location_1675145046285","email":"+651675145037328@plasticBank.com","plasticDetails":[{"plasticName":"Mixed Plastic","randValPerKg":"9.44","randKgInv":"9.35"},{"plasticName":"HDPE","randValPerKg":"4.13","randKgInv":"4.00"},{"plasticName":"PET","randValPerKg":"5.96","randKgInv":"8.85"}],"brType":"Collection Point"},
"Member-branch +651675145257957 is created" : {"countryCount":0,"countryCode":"+65","countryName":"Philippines","mobileNum":"1675145257957","cellNum":"+651675145257957","countryFname":"Auto_fName","countryLname":"Auto_lName","password":"555555","smsCode":"555555","type":"Collection Point","branchName":"BR_Auto_Name_1675145266893","location":"BR_Auto_location_1675145266893","email":"+651675145257957@plasticBank.com","plasticDetails":[{"plasticName":"Mixed Plastic","randValPerKg":"9.00","randKgInv":"7.05"},{"plasticName":"HDPE","randValPerKg":"2.79","randKgInv":"8.63"},{"plasticName":"PET","randValPerKg":"9.86","randKgInv":"3.98"}],"brType":"Collection Point"},
"Member-branch +631675156713876 is created" : {"countryCount":176,"countryCode":"+63","countryName":"Philippines","mobileNum":"1675156713876","cellNum":"+631675156713876","countryFname":"Auto_fName","countryLname":"Auto_lName","password":"555555","smsCode":"555555","type":"Collection Point","branchName":"BR_Auto_Name_1675156740027","location":"BR_Auto_location_1675156740027","email":"+631675156713876@plasticBank.com","plasticDetails":[{"plasticName":"Sibak","randValPerKg":"6.69","randKgInv":"3.81"},{"plasticName":"HDPE","randValPerKg":"8.03","randKgInv":"8.77"},{"plasticName":"PET","randValPerKg":"5.46","randKgInv":"2.26"}],"brType":"Collection Point"},
"Member-branch +631675157558450 is created" : {"countryCount":176,"countryCode":"+63","countryName":"Philippines","mobileNum":"1675157558450","cellNum":"+631675157558450","countryFname":"Auto_fName","countryLname":"Auto_lName","password":"555555","smsCode":"555555","type":"Collection Point","branchName":"BR_Auto_Name_1675157567020","location":"BR_Auto_location_1675157567020","email":"+631675157558450@plasticBank.com","plasticDetails":[{"plasticName":"Sibak","randValPerKg":"2.89","randKgInv":"9.22"},{"plasticName":"HDPE","randValPerKg":"7.46","randKgInv":"3.70"},{"plasticName":"PET","randValPerKg":"3.71","randKgInv":"3.20"}],"brType":"Collection Point"},
"Members of Collection Point +631675157558450" : [{"name":"Member_1675157640162","countryCode":"+63","memberNum":"1675157640162","countryCount":176,"brType":"Collection Point"},{"name":"Member_1675157653476","countryCode":"+63","memberNum":"1675157653476","countryCount":176,"brType":"Collection Point"},{"name":"Member_1675157665973","countryCode":"+63","memberNum":"1675157665973","countryCount":176,"brType":"Collection Point"},{"name":"Member_1675157678451","countryCode":"+63","memberNum":"1675157678451","countryCount":176,"brType":"Collection Point"},{"name":"Member_1675157691115","countryCode":"+63","memberNum":"1675157691115","countryCount":176,"brType":"Collection Point"},{"name":"Member_1675157703520","countryCode":"+63","memberNum":"1675157703520","countryCount":176,"brType":"Collection Point"},{"name":"Member_1675157716100","countryCode":"+63","memberNum":"1675157716100","countryCount":176,"brType":"Collection Point"},{"name":"Member_1675157728579","countryCode":"+63","memberNum":"1675157728579","countryCount":176,"brType":"Collection Point"},{"name":"Member_1675157741206","countryCode":"+63","memberNum":"1675157741206","countryCount":176,"brType":"Collection Point"},{"name":"Member_1675157753704","countryCode":"+63","memberNum":"1675157753704","countryCount":176,"brType":"Collection Point"}],
"Member-branch +631675158174499 is created" : {"countryCount":176,"countryCode":"+63","countryName":"Philippines","mobileNum":"1675158174499","cellNum":"+631675158174499","countryFname":"Auto_fName","countryLname":"Auto_lName","password":"555555","smsCode":"555555","type":"Collection Point","branchName":"BR_Auto_Name_1675158183047","location":"BR_Auto_location_1675158183047","email":"+631675158174499@plasticBank.com","plasticDetails":[{"plasticName":"Sibak","randValPerKg":"1.19","randKgInv":"7.56"},{"plasticName":"HDPE","randValPerKg":"4.47","randKgInv":"9.61"},{"plasticName":"PET","randValPerKg":"6.11","randKgInv":"6.55"}],"brType":"Collection Point"},
"Members of Collection Point +631675158174499" : [{"name":"Member_1675158256589","countryCode":"+63","memberNum":"1675158256589","countryCount":176,"brType":"Collection Point"}],
"Member-branch +631675158761898 is created" : {"countryCount":176,"countryCode":"+63","countryName":"Philippines","mobileNum":"1675158761898","cellNum":"+631675158761898","countryFname":"Auto_fName","countryLname":"Auto_lName","password":"555555","smsCode":"555555","type":"Collection Point","branchName":"BR_Auto_Name_1675158770403","location":"BR_Auto_location_1675158770403","email":"+631675158761898@plasticBank.com","plasticDetails":[{"plasticName":"Sibak","randValPerKg":"2.06","randKgInv":"6.95"},{"plasticName":"HDPE","randValPerKg":"3.61","randKgInv":"7.37"},{"plasticName":"PET","randValPerKg":"7.99","randKgInv":"9.62"}],"brType":"Collection Point"},
"Members of Collection Point +631675158761898" : [{"name":"Member_1675158836332","countryCode":"+63","memberNum":"1675158836332","countryCount":176,"brType":"Collection Point"}],
"Member-branch +631675328736139 is created" : {"countryCount":176,"countryCode":"+63","countryName":"Philippines","mobileNum":"1675328736139","cellNum":"+631675328736139","countryFname":"Auto_fName","countryLname":"Auto_lName","password":"555555","smsCode":"555555","type":"Collection Point","branchName":"BR_Auto_Name_1675328744701","location":"BR_Auto_location_1675328744701","email":"+631675328736139@plasticBank.com","plasticDetails":[{"plasticName":"Sibak","randValPerKg":"1.17","randKgInv":"1.78"},{"plasticName":"HDPE","randValPerKg":"1.09","randKgInv":"3.79"},{"plasticName":"PET","randValPerKg":"1.44","randKgInv":"9.98"}],"brType":"Collection Point"},
"Members of Collection Point +631675328736139" : [{"name":"Member_1675328809037","countryCode":"+63","memberNum":"1675328809037","countryCount":176,"brType":"Collection Point"}],
"Member-branch +631675330518913 is created" : {"countryCount":176,"countryCode":"+63","countryName":"Philippines","mobileNum":"1675330518913","cellNum":"+631675330518913","countryFname":"Auto_fName","countryLname":"Auto_lName","password":"555555","smsCode":"555555","type":"Collection Point","branchName":"BR_Auto_Name_1675330527508","location":"BR_Auto_location_1675330527508","email":"+631675330518913@plasticBank.com","plasticDetails":[{"plasticName":"Sibak","randValPerKg":"9.30","randKgInv":"2.80"},{"plasticName":"HDPE","randValPerKg":"8.06","randKgInv":"7.93"},{"plasticName":"PET","randValPerKg":"2.18","randKgInv":"4.50"}],"brType":"Collection Point"},
"Members of Collection Point +631675330518913" : [{"name":"Member_1675330588662","countryCode":"+63","memberNum":"1675330588662","countryCount":176,"brType":"Collection Point"}],
"Member-branch +631675352197695 is created" : {"countryCount":176,"countryCode":"+63","countryName":"Philippines","mobileNum":"1675352197695","cellNum":"+631675352197695","countryFname":"Auto_fName","countryLname":"Auto_lName","password":"555555","smsCode":"555555","type":"Collection Point","branchName":"BR_Auto_Name_1675352206236","location":"BR_Auto_location_1675352206236","email":"+631675352197695@plasticBank.com","plasticDetails":[{"plasticName":"Sibak","randValPerKg":"2.23","randKgInv":"1.35"},{"plasticName":"HDPE","randValPerKg":"9.90","randKgInv":"7.11"},{"plasticName":"PET","randValPerKg":"1.22","randKgInv":"9.41"}],"brType":"Collection Point"},
"Members of Collection Point +631675352197695" : [{"name":"Member_1675352269860","countryCode":"+63","memberNum":"1675352269860","countryCount":176,"brType":"Collection Point"}],
"Member-branch +631675352682392 is created" : {"countryCount":176,"countryCode":"+63","countryName":"Philippines","mobileNum":"1675352682392","cellNum":"+631675352682392","countryFname":"Auto_fName","countryLname":"Auto_lName","password":"555555","smsCode":"555555","type":"Collection Point","branchName":"BR_Auto_Name_1675352690955","location":"BR_Auto_location_1675352690955","email":"+631675352682392@plasticBank.com","plasticDetails":[{"plasticName":"Sibak","randValPerKg":"7.93","randKgInv":"4.27"},{"plasticName":"HDPE","randValPerKg":"1.44","randKgInv":"5.44"},{"plasticName":"PET","randValPerKg":"7.78","randKgInv":"7.28"}],"brType":"Collection Point"},
"Members of Collection Point +631675352682392" : [{"name":"Member_1675352755036","countryCode":"+63","memberNum":"1675352755036","countryCount":176,"brType":"Collection Point"}],
"Member-branch +631675353792702 is created" : {"countryCount":176,"countryCode":"+63","countryName":"Philippines","mobileNum":"1675353792702","cellNum":"+631675353792702","countryFname":"Auto_fName","countryLname":"Auto_lName","password":"555555","smsCode":"555555","type":"Collection Point","branchName":"BR_Auto_Name_1675353801339","location":"BR_Auto_location_1675353801339","email":"+631675353792702@plasticBank.com","plasticDetails":[{"plasticName":"Sibak","randValPerKg":"6.93","randKgInv":"7.45"},{"plasticName":"HDPE","randValPerKg":"1.58","randKgInv":"6.36"},{"plasticName":"PET","randValPerKg":"2.32","randKgInv":"4.05"}],"brType":"Collection Point"},
"Members of Collection Point +631675353792702" : [{"name":"Member_1675353862925","countryCode":"+63","memberNum":"1675353862925","countryCount":176,"brType":"Collection Point"}],
"Member-processor +631675355033091" : {"countryCount":176,"countryCode":"+63","countryName":"Philippines","mobileNum":"1675355033091","cellNum":"+631675355033091","countryFname":"Auto_fName","countryLname":"Auto_lName","password":"555555","smsCode":"555555","type":"Processor","processorName":"PR_Auto_1675355041910","location":"PR_Auto_location_1675355041910","email":"+631675355033091@plasticBank.com"},
"Member-branch +631675357965838 is created" : {"countryCount":176,"countryCode":"+63","countryName":"Philippines","mobileNum":"1675357965838","cellNum":"+631675357965838","countryFname":"Auto_fName","countryLname":"Auto_lName","password":"555555","smsCode":"555555","type":"Collection Point","branchName":"BR_Auto_Name_1675357974443","location":"BR_Auto_location_1675357974443","email":"+631675357965838@plasticBank.com","plasticDetails":[{"plasticName":"Sibak","randValPerKg":"3.64","randKgInv":"6.68"},{"plasticName":"HDPE","randValPerKg":"6.44","randKgInv":"8.20"},{"plasticName":"PET","randValPerKg":"7.46","randKgInv":"2.27"}],"brType":"Collection Point"},
"Members of Collection Point +631675357965838" : [{"name":"Member_1675358036232","countryCode":"+63","memberNum":"1675358036232","countryCount":176,"brType":"Collection Point"}],
"Member-processor +631675358072766" : {"countryCount":176,"countryCode":"+63","countryName":"Philippines","mobileNum":"1675358072766","cellNum":"+631675358072766","countryFname":"Auto_fName","countryLname":"Auto_lName","password":"555555","smsCode":"555555","type":"Processor","processorName":"PR_Auto_1675358081408","location":"PR_Auto_location_1675358081408","email":"+631675358072766@plasticBank.com"},
"Member-branch +631675358565543 is created" : {"countryCount":176,"countryCode":"+63","countryName":"Philippines","mobileNum":"1675358565543","cellNum":"+631675358565543","countryFname":"Auto_fName","countryLname":"Auto_lName","password":"555555","smsCode":"555555","type":"Collection Point","branchName":"BR_Auto_Name_1675358574069","location":"BR_Auto_location_1675358574069","email":"+631675358565543@plasticBank.com","plasticDetails":[{"plasticName":"Sibak","randValPerKg":"1.33","randKgInv":"5.93"},{"plasticName":"HDPE","randValPerKg":"7.97","randKgInv":"7.91"},{"plasticName":"PET","randValPerKg":"7.15","randKgInv":"3.37"}],"brType":"Collection Point"},
"Members of Collection Point +631675358565543" : [{"name":"Member_1675358636154","countryCode":"+63","memberNum":"1675358636154","countryCount":176,"brType":"Collection Point"}],
"Member-processor +631675358672393" : {"countryCount":176,"countryCode":"+63","countryName":"Philippines","mobileNum":"1675358672393","cellNum":"+631675358672393","countryFname":"Auto_fName","countryLname":"Auto_lName","password":"555555","smsCode":"555555","type":"Processor","processorName":"PR_Auto_1675358681187","location":"PR_Auto_location_1675358681187","email":"+631675358672393@plasticBank.com"},
"Member-branch +631675359012907 is created" : {"countryCount":176,"countryCode":"+63","countryName":"Philippines","mobileNum":"1675359012907","cellNum":"+631675359012907","countryFname":"Auto_fName","countryLname":"Auto_lName","password":"555555","smsCode":"555555","type":"Collection Point","branchName":"BR_Auto_Name_1675359021464","location":"BR_Auto_location_1675359021464","email":"+631675359012907@plasticBank.com","plasticDetails":[{"plasticName":"Sibak","randValPerKg":"5.11","randKgInv":"7.14"},{"plasticName":"HDPE","randValPerKg":"7.22","randKgInv":"2.31"},{"plasticName":"PET","randValPerKg":"9.27","randKgInv":"1.07"}],"brType":"Collection Point"},
"Members of Collection Point +631675359012907" : [{"name":"Member_1675359083886","countryCode":"+63","memberNum":"1675359083886","countryCount":176,"brType":"Collection Point"}],
"Member-branch +631675359258195 is created" : {"countryCount":176,"countryCode":"+63","countryName":"Philippines","mobileNum":"1675359258195","cellNum":"+631675359258195","countryFname":"Auto_fName","countryLname":"Auto_lName","password":"555555","smsCode":"555555","type":"Collection Point","branchName":"BR_Auto_Name_1675359266719","location":"BR_Auto_location_1675359266719","email":"+631675359258195@plasticBank.com","plasticDetails":[{"plasticName":"Sibak","randValPerKg":"8.06","randKgInv":"6.48"},{"plasticName":"HDPE","randValPerKg":"5.53","randKgInv":"5.87"},{"plasticName":"PET","randValPerKg":"6.43","randKgInv":"6.37"}],"brType":"Collection Point"},
"Members of Collection Point +631675359258195" : [{"name":"Member_1675359329411","countryCode":"+63","memberNum":"1675359329411","countryCount":176,"brType":"Collection Point"}],
"Member-branch +631675359660437 is created" : {"countryCount":176,"countryCode":"+63","countryName":"Philippines","mobileNum":"1675359660437","cellNum":"+631675359660437","countryFname":"Auto_fName","countryLname":"Auto_lName","password":"555555","smsCode":"555555","type":"Collection Point","branchName":"BR_Auto_Name_1675359669007","location":"BR_Auto_location_1675359669007","email":"+631675359660437@plasticBank.com","plasticDetails":[{"plasticName":"Sibak","randValPerKg":"7.98","randKgInv":"5.93"},{"plasticName":"HDPE","randValPerKg":"2.16","randKgInv":"2.38"},{"plasticName":"PET","randValPerKg":"3.08","randKgInv":"9.93"}],"brType":"Collection Point"},
"Members of Collection Point +631675359660437" : [{"name":"Member_1675359731128","countryCode":"+63","memberNum":"1675359731128","countryCount":176,"brType":"Collection Point"}],
"Member-processor +631675359767704" : {"countryCount":176,"countryCode":"+63","countryName":"Philippines","mobileNum":"1675359767704","cellNum":"+631675359767704","countryFname":"Auto_fName","countryLname":"Auto_lName","password":"555555","smsCode":"555555","type":"Processor","processorName":"PR_Auto_1675359776125","location":"PR_Auto_location_1675359776125","email":"+631675359767704@plasticBank.com"},
"Member-branch +631675779287226 is created" : {"countryCount":176,"countryCode":"+63","countryName":"Philippines","mobileNum":"1675779287226","cellNum":"+631675779287226","countryFname":"Auto_fName","countryLname":"Auto_lName","password":"555555","smsCode":"555555","type":"Collection Point","branchName":"BR_Auto_Name_1675779296546","location":"BR_Auto_location_1675779296546","email":"+631675779287226@plasticBank.com","plasticDetails":[{"plasticName":"Sibak","randValPerKg":"4.39","randKgInv":"3.37"},{"plasticName":"HDPE","randValPerKg":"6.59","randKgInv":"4.72"},{"plasticName":"PET","randValPerKg":"2.99","randKgInv":"1.95"}],"brType":"Collection Point"},
"Member-branch +631675779607371 is created" : {"countryCount":176,"countryCode":"+63","countryName":"Philippines","mobileNum":"1675779607371","cellNum":"+631675779607371","countryFname":"Auto_fName","countryLname":"Auto_lName","password":"555555","smsCode":"555555","type":"Collection Point","branchName":"BR_Auto_Name_1675779616841","location":"BR_Auto_location_1675779616841","email":"+631675779607371@plasticBank.com","plasticDetails":[{"plasticName":"Sibak","randValPerKg":"2.48","randKgInv":"1.37"},{"plasticName":"HDPE","randValPerKg":"6.05","randKgInv":"9.60"},{"plasticName":"PET","randValPerKg":"3.10","randKgInv":"6.11"}],"brType":"Collection Point"},
"Members of Collection Point +631675779607371" : [{"name":"Member_1675779693383","countryCode":"+63","memberNum":"1675779693383","countryCount":176,"brType":"Collection Point"},{"name":"Member_1675779706672","countryCode":"+63","memberNum":"1675779706672","countryCount":176,"brType":"Collection Point"},{"name":"Member_1675779719277","countryCode":"+63","memberNum":"1675779719277","countryCount":176,"brType":"Collection Point"},{"name":"Member_1675779731469","countryCode":"+63","memberNum":"1675779731469","countryCount":176,"brType":"Collection Point"},{"name":"Member_1675779744220","countryCode":"+63","memberNum":"1675779744220","countryCount":176,"brType":"Collection Point"},{"name":"Member_1675779756853","countryCode":"+63","memberNum":"1675779756853","countryCount":176,"brType":"Collection Point"},{"name":"Member_1675779769432","countryCode":"+63","memberNum":"1675779769432","countryCount":176,"brType":"Collection Point"},{"name":"Member_1675779781953","countryCode":"+63","memberNum":"1675779781953","countryCount":176,"brType":"Collection Point"},{"name":"Member_1675779794599","countryCode":"+63","memberNum":"1675779794599","countryCount":176,"brType":"Collection Point"},{"name":"Member_1675779807228","countryCode":"+63","memberNum":"1675779807228","countryCount":176,"brType":"Collection Point"}],
"Member-branch +631675780536383 is created" : {"countryCount":176,"countryCode":"+63","countryName":"Philippines","mobileNum":"1675780536383","cellNum":"+631675780536383","countryFname":"Auto_fName","countryLname":"Auto_lName","password":"555555","smsCode":"555555","type":"Collection Point","branchName":"BR_Auto_Name_1675780608622","location":"BR_Auto_location_1675780608622","email":"+631675780536383@plasticBank.com","plasticDetails":[{"plasticName":"Sibak","randValPerKg":"8.78","randKgInv":"2.48"},{"plasticName":"HDPE","randValPerKg":"8.10","randKgInv":"3.57"},{"plasticName":"PET","randValPerKg":"6.97","randKgInv":"5.97"}],"brType":"Collection Point"},
"Member-branch +631675780668156 is created" : {"countryCount":176,"countryCode":"+63","countryName":"Philippines","mobileNum":"1675780668156","cellNum":"+631675780668156","countryFname":"Auto_fName","countryLname":"Auto_lName","password":"555555","smsCode":"555555","type":"Collection Point","branchName":"BR_Auto_Name_1675780677846","location":"BR_Auto_location_1675780677846","email":"+631675780668156@plasticBank.com","plasticDetails":[{"plasticName":"Sibak","randValPerKg":"3.59","randKgInv":"7.07"},{"plasticName":"HDPE","randValPerKg":"7.46","randKgInv":"5.55"},{"plasticName":"PET","randValPerKg":"2.91","randKgInv":"7.00"}],"brType":"Collection Point"},
"Members of Collection Point +631675780536383" : [{"name":"Member_1675780921452","countryCode":"+63","memberNum":"1675780921452","countryCount":176,"brType":"Collection Point"},{"name":"Member_1675780935011","countryCode":"+63","memberNum":"1675780935011","countryCount":176,"brType":"Collection Point"},{"name":"Member_1675780947721","countryCode":"+63","memberNum":"1675780947721","countryCount":176,"brType":"Collection Point"},{"name":"Member_1675780959968","countryCode":"+63","memberNum":"1675780959968","countryCount":176,"brType":"Collection Point"},{"name":"Member_1675780972273","countryCode":"+63","memberNum":"1675780972273","countryCount":176,"brType":"Collection Point"},{"name":"Member_1675780984514","countryCode":"+63","memberNum":"1675780984514","countryCount":176,"brType":"Collection Point"},{"name":"Member_1675780996834","countryCode":"+63","memberNum":"1675780996834","countryCount":176,"brType":"Collection Point"},{"name":"Member_1675781008904","countryCode":"+63","memberNum":"1675781008904","countryCount":176,"brType":"Collection Point"},{"name":"Member_1675781021309","countryCode":"+63","memberNum":"1675781021309","countryCount":176,"brType":"Collection Point"},{"name":"Member_1675781033197","countryCode":"+63","memberNum":"1675781033197","countryCount":176,"brType":"Collection Point"}],
"Member-processor +631675781083020" : {"countryCount":176,"countryCode":"+63","countryName":"Philippines","mobileNum":"1675781083020","cellNum":"+631675781083020","countryFname":"Auto_fName","countryLname":"Auto_lName","password":"555555","smsCode":"555555","type":"Processor","processorName":"PR_Auto_1675781107804","location":"PR_Auto_location_1675781107804","email":"+631675781083020@plasticBank.com"},
"Member-branch +631675781795364 is created" : {"countryCount":176,"countryCode":"+63","countryName":"Philippines","mobileNum":"1675781795364","cellNum":"+631675781795364","countryFname":"Auto_fName","countryLname":"Auto_lName","password":"555555","smsCode":"555555","type":"Collection Point","branchName":"BR_Auto_Name_1675781804743","location":"BR_Auto_location_1675781804743","email":"+631675781795364@plasticBank.com","plasticDetails":[{"plasticName":"Sibak","randValPerKg":"3.64","randKgInv":"5.41"},{"plasticName":"HDPE","randValPerKg":"4.13","randKgInv":"7.89"},{"plasticName":"PET","randValPerKg":"6.06","randKgInv":"8.15"}],"brType":"Collection Point"},
"Member-branch +631675781858521 is created" : {"countryCount":176,"countryCode":"+63","countryName":"Philippines","mobileNum":"1675781858521","cellNum":"+631675781858521","countryFname":"Auto_fName","countryLname":"Auto_lName","password":"555555","smsCode":"555555","type":"Collection Point","branchName":"BR_Auto_Name_1675781867853","location":"BR_Auto_location_1675781867853","email":"+631675781858521@plasticBank.com","plasticDetails":[{"plasticName":"Sibak","randValPerKg":"3.81","randKgInv":"8.83"},{"plasticName":"HDPE","randValPerKg":"1.49","randKgInv":"4.79"},{"plasticName":"PET","randValPerKg":"8.07","randKgInv":"2.71"}],"brType":"Collection Point"},
"Members of Collection Point +631675781795364" : [{"name":"Member_1675781936749","countryCode":"+63","memberNum":"1675781936749","countryCount":176,"brType":"Collection Point"},{"name":"Member_1675781949834","countryCode":"+63","memberNum":"1675781949834","countryCount":176,"brType":"Collection Point"},{"name":"Member_1675781961840","countryCode":"+63","memberNum":"1675781961840","countryCount":176,"brType":"Collection Point"},{"name":"Member_1675781973725","countryCode":"+63","memberNum":"1675781973725","countryCount":176,"brType":"Collection Point"},{"name":"Member_1675781985831","countryCode":"+63","memberNum":"1675781985831","countryCount":176,"brType":"Collection Point"},{"name":"Member_1675781998355","countryCode":"+63","memberNum":"1675781998355","countryCount":176,"brType":"Collection Point"},{"name":"Member_1675782010831","countryCode":"+63","memberNum":"1675782010831","countryCount":176,"brType":"Collection Point"},{"name":"Member_1675782023188","countryCode":"+63","memberNum":"1675782023188","countryCount":176,"brType":"Collection Point"},{"name":"Member_1675782035440","countryCode":"+63","memberNum":"1675782035440","countryCount":176,"brType":"Collection Point"},{"name":"Member_1675782047785","countryCode":"+63","memberNum":"1675782047785","countryCount":176,"brType":"Collection Point"}],
"Member-branch +631675783612088 is created" : {"countryCount":176,"countryCode":"+63","countryName":"Philippines","mobileNum":"1675783612088","cellNum":"+631675783612088","countryFname":"Auto_fName","countryLname":"Auto_lName","password":"555555","smsCode":"555555","type":"Collection Point","branchName":"BR_Auto_Name_1675783621501","location":"BR_Auto_location_1675783621501","email":"+631675783612088@plasticBank.com","plasticDetails":[{"plasticName":"Sibak","randValPerKg":"3.80","randKgInv":"6.11"},{"plasticName":"HDPE","randValPerKg":"9.78","randKgInv":"8.05"},{"plasticName":"PET","randValPerKg":"1.99","randKgInv":"8.43"}],"brType":"Collection Point"},
"Member-branch +631675783679119 is created" : {"countryCount":176,"countryCode":"+63","countryName":"Philippines","mobileNum":"1675783679119","cellNum":"+631675783679119","countryFname":"Auto_fName","countryLname":"Auto_lName","password":"555555","smsCode":"555555","type":"Collection Point","branchName":"BR_Auto_Name_1675783687807","location":"BR_Auto_location_1675783687807","email":"+631675783679119@plasticBank.com","plasticDetails":[{"plasticName":"Sibak","randValPerKg":"8.84","randKgInv":"7.15"},{"plasticName":"HDPE","randValPerKg":"8.77","randKgInv":"9.82"},{"plasticName":"PET","randValPerKg":"8.40","randKgInv":"5.72"}],"brType":"Collection Point"},
"Members of Collection Point +631675783612088" : [{"name":"Member_1675783755317","countryCode":"+63","memberNum":"1675783755317","countryCount":176,"brType":"Collection Point"},{"name":"Member_1675783769155","countryCode":"+63","memberNum":"1675783769155","countryCount":176,"brType":"Collection Point"},{"name":"Member_1675783781915","countryCode":"+63","memberNum":"1675783781915","countryCount":176,"brType":"Collection Point"},{"name":"Member_1675783793980","countryCode":"+63","memberNum":"1675783793980","countryCount":176,"brType":"Collection Point"},{"name":"Member_1675783806784","countryCode":"+63","memberNum":"1675783806784","countryCount":176,"brType":"Collection Point"},{"name":"Member_1675783819560","countryCode":"+63","memberNum":"1675783819560","countryCount":176,"brType":"Collection Point"},{"name":"Member_1675783832134","countryCode":"+63","memberNum":"1675783832134","countryCount":176,"brType":"Collection Point"},{"name":"Member_1675783844736","countryCode":"+63","memberNum":"1675783844736","countryCount":176,"brType":"Collection Point"},{"name":"Member_1675783857320","countryCode":"+63","memberNum":"1675783857320","countryCount":176,"brType":"Collection Point"},{"name":"Member_1675783869711","countryCode":"+63","memberNum":"1675783869711","countryCount":176,"brType":"Collection Point"}],
"Member-branch +931675784411996 is created" : {"countryCount":0,"countryCode":"+93","countryName":"Afghanistan","mobileNum":"1675784411996","cellNum":"+931675784411996","countryFname":"Auto_fName","countryLname":"Auto_lName","password":"555555","smsCode":"555555","type":"Collection Point","branchName":"BR_Auto_Name_1675784421256","location":"BR_Auto_location_1675784421256","email":"+931675784411996@plasticBank.com","plasticDetails":[{"plasticName":"Mixed Plastic","randValPerKg":"2.37","randKgInv":"8.50"},{"plasticName":"HDPE","randValPerKg":"4.51","randKgInv":"3.74"},{"plasticName":"PET","randValPerKg":"5.03","randKgInv":"4.57"}],"brType":"Collection Point"},
"Member-branch +931675784479538 is created" : {"countryCount":0,"countryCode":"+93","countryName":"Afghanistan","mobileNum":"1675784479538","cellNum":"+931675784479538","countryFname":"Auto_fName","countryLname":"Auto_lName","password":"555555","smsCode":"555555","type":"Collection Point","branchName":"BR_Auto_Name_1675784744945","location":"BR_Auto_location_1675784744945","email":"+931675784479538@plasticBank.com","plasticDetails":[{"plasticName":"Mixed Plastic","randValPerKg":"3.07","randKgInv":"1.82"},{"plasticName":"HDPE","randValPerKg":"2.30","randKgInv":"3.55"},{"plasticName":"PET","randValPerKg":"7.24","randKgInv":"3.86"}],"brType":"Collection Point"},
"Members of Collection Point +931675784411996" : [{"name":"Member_1675784890818","countryCode":"+93","memberNum":"1675784890818","countryCount":0,"brType":"Collection Point"},{"name":"Member_1675784917441","countryCode":"+93","memberNum":"1675784917441","countryCount":0,"brType":"Collection Point"},{"name":"Member_1675784941291","countryCode":"+93","memberNum":"1675784941291","countryCount":0,"brType":"Collection Point"},{"name":"Member_1675784969454","countryCode":"+93","memberNum":"1675784969454","countryCount":0,"brType":"Collection Point"},{"name":"Member_1675784998641","countryCode":"+93","memberNum":"1675784998641","countryCount":0,"brType":"Collection Point"},{"name":"Member_1675785024905","countryCode":"+93","memberNum":"1675785024905","countryCount":0,"brType":"Collection Point"},{"name":"Member_1675785051064","countryCode":"+93","memberNum":"1675785051064","countryCount":0,"brType":"Collection Point"},{"name":"Member_1675785078275","countryCode":"+93","memberNum":"1675785078275","countryCount":0,"brType":"Collection Point"},{"name":"Member_1675785103532","countryCode":"+93","memberNum":"1675785103532","countryCount":0,"brType":"Collection Point"},{"name":"Member_1675785122820","countryCode":"+93","memberNum":"1675785122820","countryCount":0,"brType":"Collection Point"}],
"Member-branch +631675785748485 is created" : {"countryCount":176,"countryCode":"+63","countryName":"Philippines","mobileNum":"1675785748485","cellNum":"+631675785748485","countryFname":"Auto_fName","countryLname":"Auto_lName","password":"555555","smsCode":"555555","type":"Collection Point","branchName":"BR_Auto_Name_1675786002880","location":"BR_Auto_location_1675786002880","email":"+631675785748485@plasticBank.com","plasticDetails":[{"plasticName":"Sibak","randValPerKg":"1.66","randKgInv":"7.10"},{"plasticName":"HDPE","randValPerKg":"7.87","randKgInv":"2.45"},{"plasticName":"PET","randValPerKg":"8.99","randKgInv":"5.17"}],"brType":"Collection Point"},
"Member-branch +631675786057573 is created" : {"countryCount":176,"countryCode":"+63","countryName":"Philippines","mobileNum":"1675786057573","cellNum":"+631675786057573","countryFname":"Auto_fName","countryLname":"Auto_lName","password":"555555","smsCode":"555555","type":"Collection Point","branchName":"BR_Auto_Name_1675786066575","location":"BR_Auto_location_1675786066575","email":"+631675786057573@plasticBank.com","plasticDetails":[{"plasticName":"Sibak","randValPerKg":"6.15","randKgInv":"6.94"},{"plasticName":"HDPE","randValPerKg":"2.33","randKgInv":"1.13"},{"plasticName":"PET","randValPerKg":"3.30","randKgInv":"7.81"}],"brType":"Collection Point"},
"Members of Collection Point +631675785748485" : [{"name":"Member_1675786137049","countryCode":"+63","memberNum":"1675786137049","countryCount":176,"brType":"Collection Point"},{"name":"Member_1675786150622","countryCode":"+63","memberNum":"1675786150622","countryCount":176,"brType":"Collection Point"},{"name":"Member_1675786162457","countryCode":"+63","memberNum":"1675786162457","countryCount":176,"brType":"Collection Point"},{"name":"Member_1675786174861","countryCode":"+63","memberNum":"1675786174861","countryCount":176,"brType":"Collection Point"},{"name":"Member_1675786186909","countryCode":"+63","memberNum":"1675786186909","countryCount":176,"brType":"Collection Point"},{"name":"Member_1675786198866","countryCode":"+63","memberNum":"1675786198866","countryCount":176,"brType":"Collection Point"},{"name":"Member_1675786211388","countryCode":"+63","memberNum":"1675786211388","countryCount":176,"brType":"Collection Point"},{"name":"Member_1675786223426","countryCode":"+63","memberNum":"1675786223426","countryCount":176,"brType":"Collection Point"},{"name":"Member_1675786235317","countryCode":"+63","memberNum":"1675786235317","countryCount":176,"brType":"Collection Point"},{"name":"Member_1675786247164","countryCode":"+63","memberNum":"1675786247164","countryCount":176,"brType":"Collection Point"}],
"Member-branch +631675816189982 is created" : {"countryCount":176,"countryCode":"+63","countryName":"Philippines","mobileNum":"1675816189982","cellNum":"+631675816189982","countryFname":"Auto_fName","countryLname":"Auto_lName","password":"555555","smsCode":"555555","type":"Collection Point","branchName":"BR_Auto_Name_1675816199396","location":"BR_Auto_location_1675816199396","email":"+631675816189982@plasticBank.com","plasticDetails":[{"plasticName":"Sibak","randValPerKg":"5.89","randKgInv":"4.25"},{"plasticName":"HDPE","randValPerKg":"9.94","randKgInv":"1.46"},{"plasticName":"PET","randValPerKg":"4.12","randKgInv":"7.13"}],"brType":"Collection Point"},
"Member-branch +631675816256876 is created" : {"countryCount":176,"countryCode":"+63","countryName":"Philippines","mobileNum":"1675816256876","cellNum":"+631675816256876","countryFname":"Auto_fName","countryLname":"Auto_lName","password":"555555","smsCode":"555555","type":"Collection Point","branchName":"BR_Auto_Name_1675816266124","location":"BR_Auto_location_1675816266124","email":"+631675816256876@plasticBank.com","plasticDetails":[{"plasticName":"Sibak","randValPerKg":"2.53","randKgInv":"5.22"},{"plasticName":"HDPE","randValPerKg":"2.01","randKgInv":"9.01"},{"plasticName":"PET","randValPerKg":"2.17","randKgInv":"9.67"}],"brType":"Collection Point"},
"Members of Collection Point +631675816189982" : [{"name":"Member_1675816336927","countryCode":"+63","memberNum":"1675816336927","countryCount":176,"brType":"Collection Point"},{"name":"Member_1675816350510","countryCode":"+63","memberNum":"1675816350510","countryCount":176,"brType":"Collection Point"},{"name":"Member_1675816362835","countryCode":"+63","memberNum":"1675816362835","countryCount":176,"brType":"Collection Point"},{"name":"Member_1675816375231","countryCode":"+63","memberNum":"1675816375231","countryCount":176,"brType":"Collection Point"},{"name":"Member_1675816387571","countryCode":"+63","memberNum":"1675816387571","countryCount":176,"brType":"Collection Point"},{"name":"Member_1675816399714","countryCode":"+63","memberNum":"1675816399714","countryCount":176,"brType":"Collection Point"},{"name":"Member_1675816412109","countryCode":"+63","memberNum":"1675816412109","countryCount":176,"brType":"Collection Point"},{"name":"Member_1675816424298","countryCode":"+63","memberNum":"1675816424298","countryCount":176,"brType":"Collection Point"},{"name":"Member_1675816436590","countryCode":"+63","memberNum":"1675816436590","countryCount":176,"brType":"Collection Point"},{"name":"Member_1675816448905","countryCode":"+63","memberNum":"1675816448905","countryCount":176,"brType":"Collection Point"}],
"Member-branch +631675816686482 is created" : {"countryCount":176,"countryCode":"+63","countryName":"Philippines","mobileNum":"1675816686482","cellNum":"+631675816686482","countryFname":"Auto_fName","countryLname":"Auto_lName","password":"555555","smsCode":"555555","type":"Collection Point","branchName":"BR_Auto_Name_1675816822315","location":"BR_Auto_location_1675816822315","email":"+631675816686482@plasticBank.com","plasticDetails":[{"plasticName":"Sibak","randValPerKg":"2.30","randKgInv":"2.18"},{"plasticName":"HDPE","randValPerKg":"6.74","randKgInv":"3.11"},{"plasticName":"PET","randValPerKg":"3.56","randKgInv":"8.93"}],"brType":"Collection Point"},
"Member-branch +631675816882851 is created" : {"countryCount":176,"countryCode":"+63","countryName":"Philippines","mobileNum":"1675816882851","cellNum":"+631675816882851","countryFname":"Auto_fName","countryLname":"Auto_lName","password":"555555","smsCode":"555555","type":"Collection Point","branchName":"BR_Auto_Name_1675816912502","location":"BR_Auto_location_1675816912502","email":"+631675816882851@plasticBank.com","plasticDetails":[{"plasticName":"Sibak","randValPerKg":"8.33","randKgInv":"4.48"},{"plasticName":"HDPE","randValPerKg":"2.22","randKgInv":"6.39"},{"plasticName":"PET","randValPerKg":"3.51","randKgInv":"7.09"}],"brType":"Collection Point"},
"Member-branch +631675817065572 is created" : {"countryCount":176,"countryCode":"+63","countryName":"Philippines","mobileNum":"1675817065572","cellNum":"+631675817065572","countryFname":"Auto_fName","countryLname":"Auto_lName","password":"555555","smsCode":"555555","type":"Collection Point","branchName":"BR_Auto_Name_1675817074748","location":"BR_Auto_location_1675817074748","email":"+631675817065572@plasticBank.com","plasticDetails":[{"plasticName":"Sibak","randValPerKg":"5.71","randKgInv":"3.23"},{"plasticName":"HDPE","randValPerKg":"8.55","randKgInv":"4.67"},{"plasticName":"PET","randValPerKg":"4.81","randKgInv":"8.45"}],"brType":"Collection Point"},
"Member-branch +631675817130355 is created" : {"countryCount":176,"countryCode":"+63","countryName":"Philippines","mobileNum":"1675817130355","cellNum":"+631675817130355","countryFname":"Auto_fName","countryLname":"Auto_lName","password":"555555","smsCode":"555555","type":"Collection Point","branchName":"BR_Auto_Name_1675817139327","location":"BR_Auto_location_1675817139327","email":"+631675817130355@plasticBank.com","plasticDetails":[{"plasticName":"Sibak","randValPerKg":"8.78","randKgInv":"6.60"},{"plasticName":"HDPE","randValPerKg":"4.36","randKgInv":"9.68"},{"plasticName":"PET","randValPerKg":"3.32","randKgInv":"2.59"}],"brType":"Collection Point"},
"Member-branch +631675817992713 is created" : {"countryCount":176,"countryCode":"+63","countryName":"Philippines","mobileNum":"1675817992713","cellNum":"+631675817992713","countryFname":"Auto_fName","countryLname":"Auto_lName","password":"555555","smsCode":"555555","type":"Collection Point","branchName":"BR_Auto_Name_1675818002055","location":"BR_Auto_location_1675818002055","email":"+631675817992713@plasticBank.com","plasticDetails":[{"plasticName":"Sibak","randValPerKg":"5.07","randKgInv":"8.23"},{"plasticName":"HDPE","randValPerKg":"5.29","randKgInv":"2.85"},{"plasticName":"PET","randValPerKg":"5.03","randKgInv":"9.09"}],"brType":"Collection Point"},
"Member-branch +631675818058007 is created" : {"countryCount":176,"countryCode":"+63","countryName":"Philippines","mobileNum":"1675818058007","cellNum":"+631675818058007","countryFname":"Auto_fName","countryLname":"Auto_lName","password":"555555","smsCode":"555555","type":"Collection Point","branchName":"BR_Auto_Name_1675818066944","location":"BR_Auto_location_1675818066944","email":"+631675818058007@plasticBank.com","plasticDetails":[{"plasticName":"Sibak","randValPerKg":"1.24","randKgInv":"5.26"},{"plasticName":"HDPE","randValPerKg":"4.33","randKgInv":"7.33"},{"plasticName":"PET","randValPerKg":"8.58","randKgInv":"5.38"}],"brType":"Collection Point"},
"Member-branch +631675818300868 is created" : {"countryCount":176,"countryCode":"+63","countryName":"Philippines","mobileNum":"1675818300868","cellNum":"+631675818300868","countryFname":"Auto_fName","countryLname":"Auto_lName","password":"555555","smsCode":"555555","type":"Collection Point","branchName":"BR_Auto_Name_1675818310333","location":"BR_Auto_location_1675818310333","email":"+631675818300868@plasticBank.com","plasticDetails":[{"plasticName":"Sibak","randValPerKg":"6.56","randKgInv":"3.45"},{"plasticName":"HDPE","randValPerKg":"1.43","randKgInv":"4.23"},{"plasticName":"PET","randValPerKg":"6.34","randKgInv":"5.11"}],"brType":"Collection Point"},
"Member-branch +631675818399794 is created" : {"countryCount":176,"countryCode":"+63","countryName":"Philippines","mobileNum":"1675818399794","cellNum":"+631675818399794","countryFname":"Auto_fName","countryLname":"Auto_lName","password":"555555","smsCode":"555555","type":"Collection Point","branchName":"BR_Auto_Name_1675818408822","location":"BR_Auto_location_1675818408822","email":"+631675818399794@plasticBank.com","plasticDetails":[{"plasticName":"Sibak","randValPerKg":"7.19","randKgInv":"3.73"},{"plasticName":"HDPE","randValPerKg":"4.95","randKgInv":"6.01"},{"plasticName":"PET","randValPerKg":"5.30","randKgInv":"7.10"}],"brType":"Collection Point"},
"Member-branch +631675819025831 is created" : {"countryCount":176,"countryCode":"+63","countryName":"Philippines","mobileNum":"1675819025831","cellNum":"+631675819025831","countryFname":"Auto_fName","countryLname":"Auto_lName","password":"555555","smsCode":"555555","type":"Collection Point","branchName":"BR_Auto_Name_1675819034842","location":"BR_Auto_location_1675819034842","email":"+631675819025831@plasticBank.com","plasticDetails":[{"plasticName":"Sibak","randValPerKg":"2.12","randKgInv":"3.33"},{"plasticName":"HDPE","randValPerKg":"5.90","randKgInv":"6.36"},{"plasticName":"PET","randValPerKg":"2.24","randKgInv":"3.27"}],"brType":"Collection Point"},
"Member-branch +631675819091983 is created" : {"countryCount":176,"countryCode":"+63","countryName":"Philippines","mobileNum":"1675819091983","cellNum":"+631675819091983","countryFname":"Auto_fName","countryLname":"Auto_lName","password":"555555","smsCode":"555555","type":"Collection Point","branchName":"BR_Auto_Name_1675819100923","location":"BR_Auto_location_1675819100923","email":"+631675819091983@plasticBank.com","plasticDetails":[{"plasticName":"Sibak","randValPerKg":"4.89","randKgInv":"7.35"},{"plasticName":"HDPE","randValPerKg":"1.57","randKgInv":"6.28"},{"plasticName":"PET","randValPerKg":"1.87","randKgInv":"7.75"}],"brType":"Collection Point"},
"Member-branch +631675820968007 is created" : {"countryCount":176,"countryCode":"+63","countryName":"Philippines","mobileNum":"1675820968007","cellNum":"+631675820968007","countryFname":"Auto_fName","countryLname":"Auto_lName","password":"555555","smsCode":"555555","type":"Collection Point","branchName":"BR_Auto_Name_1675820977122","location":"BR_Auto_location_1675820977122","email":"+631675820968007@plasticBank.com","plasticDetails":[{"plasticName":"Sibak","randValPerKg":"9.81","randKgInv":"6.97"},{"plasticName":"HDPE","randValPerKg":"3.29","randKgInv":"3.37"},{"plasticName":"PET","randValPerKg":"5.52","randKgInv":"6.43"}],"brType":"Collection Point"},
"Member-branch +631675821032723 is created" : {"countryCount":176,"countryCode":"+63","countryName":"Philippines","mobileNum":"1675821032723","cellNum":"+631675821032723","countryFname":"Auto_fName","countryLname":"Auto_lName","password":"555555","smsCode":"555555","type":"Collection Point","branchName":"BR_Auto_Name_1675821042010","location":"BR_Auto_location_1675821042010","email":"+631675821032723@plasticBank.com","plasticDetails":[{"plasticName":"Sibak","randValPerKg":"3.00","randKgInv":"6.32"},{"plasticName":"HDPE","randValPerKg":"7.44","randKgInv":"3.88"},{"plasticName":"PET","randValPerKg":"2.84","randKgInv":"4.85"}],"brType":"Collection Point"},
"Member-branch +631675821376209 is created" : {"countryCount":176,"countryCode":"+63","countryName":"Philippines","mobileNum":"1675821376209","cellNum":"+631675821376209","countryFname":"Auto_fName","countryLname":"Auto_lName","password":"555555","smsCode":"555555","type":"Collection Point","branchName":"BR_Auto_Name_1675821389043","location":"BR_Auto_location_1675821389043","email":"+631675821376209@plasticBank.com","plasticDetails":[{"plasticName":"Sibak","randValPerKg":"2.08","randKgInv":"3.15"},{"plasticName":"HDPE","randValPerKg":"9.32","randKgInv":"5.09"},{"plasticName":"PET","randValPerKg":"2.80","randKgInv":"3.05"}],"brType":"Collection Point"},
"Member-branch +631675821644697 is created" : {"countryCount":176,"countryCode":"+63","countryName":"Philippines","mobileNum":"1675821644697","cellNum":"+631675821644697","countryFname":"Auto_fName","countryLname":"Auto_lName","password":"555555","smsCode":"555555","type":"Collection Point","branchName":"BR_Auto_Name_1675821657884","location":"BR_Auto_location_1675821657884","email":"+631675821644697@plasticBank.com","plasticDetails":[{"plasticName":"Sibak","randValPerKg":"1.78","randKgInv":"2.75"},{"plasticName":"HDPE","randValPerKg":"6.15","randKgInv":"5.31"},{"plasticName":"PET","randValPerKg":"6.83","randKgInv":"2.82"}],"brType":"Collection Point"},
"Member-branch +631675821718547 is created" : {"countryCount":176,"countryCode":"+63","countryName":"Philippines","mobileNum":"1675821718547","cellNum":"+631675821718547","countryFname":"Auto_fName","countryLname":"Auto_lName","password":"555555","smsCode":"555555","type":"Collection Point","branchName":"BR_Auto_Name_1675821731685","location":"BR_Auto_location_1675821731685","email":"+631675821718547@plasticBank.com","plasticDetails":[{"plasticName":"Sibak","randValPerKg":"8.22","randKgInv":"9.86"},{"plasticName":"HDPE","randValPerKg":"8.63","randKgInv":"5.27"},{"plasticName":"PET","randValPerKg":"4.91","randKgInv":"5.16"}],"brType":"Collection Point"},
"Member-branch +631675822175810 is created" : {"countryCount":176,"countryCode":"+63","countryName":"Philippines","mobileNum":"1675822175810","cellNum":"+631675822175810","countryFname":"Auto_fName","countryLname":"Auto_lName","password":"555555","smsCode":"555555","type":"Collection Point","branchName":"BR_Auto_Name_1675822188720","location":"BR_Auto_location_1675822188720","email":"+631675822175810@plasticBank.com","plasticDetails":[{"plasticName":"Sibak","randValPerKg":"2.36","randKgInv":"3.46"},{"plasticName":"HDPE","randValPerKg":"6.23","randKgInv":"7.13"},{"plasticName":"PET","randValPerKg":"6.35","randKgInv":"4.41"}],"brType":"Collection Point"},
"Member-branch +631675822246452 is created" : {"countryCount":176,"countryCode":"+63","countryName":"Philippines","mobileNum":"1675822246452","cellNum":"+631675822246452","countryFname":"Auto_fName","countryLname":"Auto_lName","password":"555555","smsCode":"555555","type":"Collection Point","branchName":"BR_Auto_Name_1675822259758","location":"BR_Auto_location_1675822259758","email":"+631675822246452@plasticBank.com","plasticDetails":[{"plasticName":"Sibak","randValPerKg":"1.78","randKgInv":"4.57"},{"plasticName":"HDPE","randValPerKg":"2.43","randKgInv":"7.24"},{"plasticName":"PET","randValPerKg":"1.20","randKgInv":"3.86"}],"brType":"Collection Point"},
"Member-branch +631675822725965 is created" : {"countryCount":176,"countryCode":"+63","countryName":"Philippines","mobileNum":"1675822725965","cellNum":"+631675822725965","countryFname":"Auto_fName","countryLname":"Auto_lName","password":"555555","smsCode":"555555","type":"Collection Point","branchName":"BR_Auto_Name_1675822738662","location":"BR_Auto_location_1675822738662","email":"+631675822725965@plasticBank.com","plasticDetails":[{"plasticName":"Sibak","randValPerKg":"4.19","randKgInv":"2.69"},{"plasticName":"HDPE","randValPerKg":"1.39","randKgInv":"5.83"},{"plasticName":"PET","randValPerKg":"9.61","randKgInv":"9.01"}],"brType":"Collection Point"},
"Member-branch +631675822795281 is created" : {"countryCount":176,"countryCode":"+63","countryName":"Philippines","mobileNum":"1675822795281","cellNum":"+631675822795281","countryFname":"Auto_fName","countryLname":"Auto_lName","password":"555555","smsCode":"555555","type":"Collection Point","branchName":"BR_Auto_Name_1675822808385","location":"BR_Auto_location_1675822808385","email":"+631675822795281@plasticBank.com","plasticDetails":[{"plasticName":"Sibak","randValPerKg":"2.57","randKgInv":"1.19"},{"plasticName":"HDPE","randValPerKg":"5.97","randKgInv":"4.79"},{"plasticName":"PET","randValPerKg":"6.58","randKgInv":"2.45"}],"brType":"Collection Point"},
"Member-branch +631675823345565 is created" : {"countryCount":176,"countryCode":"+63","countryName":"Philippines","mobileNum":"1675823345565","cellNum":"+631675823345565","countryFname":"Auto_fName","countryLname":"Auto_lName","password":"555555","smsCode":"555555","type":"Collection Point","branchName":"BR_Auto_Name_1675823358424","location":"BR_Auto_location_1675823358424","email":"+631675823345565@plasticBank.com","plasticDetails":[{"plasticName":"Sibak","randValPerKg":"9.28","randKgInv":"8.25"},{"plasticName":"HDPE","randValPerKg":"1.15","randKgInv":"8.81"},{"plasticName":"PET","randValPerKg":"4.81","randKgInv":"3.98"}],"brType":"Collection Point"},
"Member-branch +631675823415925 is created" : {"countryCount":176,"countryCode":"+63","countryName":"Philippines","mobileNum":"1675823415925","cellNum":"+631675823415925","countryFname":"Auto_fName","countryLname":"Auto_lName","password":"555555","smsCode":"555555","type":"Collection Point","branchName":"BR_Auto_Name_1675823428674","location":"BR_Auto_location_1675823428674","email":"+631675823415925@plasticBank.com","plasticDetails":[{"plasticName":"Sibak","randValPerKg":"3.93","randKgInv":"1.46"},{"plasticName":"HDPE","randValPerKg":"9.69","randKgInv":"3.02"},{"plasticName":"PET","randValPerKg":"7.92","randKgInv":"5.34"}],"brType":"Collection Point"},
"Member-branch +631675824166515 is created" : {"countryCount":176,"countryCode":"+63","countryName":"Philippines","mobileNum":"1675824166515","cellNum":"+631675824166515","countryFname":"Auto_fName","countryLname":"Auto_lName","password":"555555","smsCode":"555555","type":"Collection Point","branchName":"BR_Auto_Name_1675824180012","location":"BR_Auto_location_1675824180012","email":"+631675824166515@plasticBank.com","plasticDetails":[{"plasticName":"Sibak","randValPerKg":"8.43","randKgInv":"1.76"},{"plasticName":"HDPE","randValPerKg":"6.36","randKgInv":"4.72"},{"plasticName":"PET","randValPerKg":"3.71","randKgInv":"4.22"}],"brType":"Collection Point"},
"Member-branch +631675824235316 is created" : {"countryCount":176,"countryCode":"+63","countryName":"Philippines","mobileNum":"1675824235316","cellNum":"+631675824235316","countryFname":"Auto_fName","countryLname":"Auto_lName","password":"555555","smsCode":"555555","type":"Collection Point","branchName":"BR_Auto_Name_1675824247977","location":"BR_Auto_location_1675824247977","email":"+631675824235316@plasticBank.com","plasticDetails":[{"plasticName":"Sibak","randValPerKg":"2.77","randKgInv":"9.31"},{"plasticName":"HDPE","randValPerKg":"4.21","randKgInv":"8.72"},{"plasticName":"PET","randValPerKg":"1.43","randKgInv":"9.67"}],"brType":"Collection Point"},
"Member-branch +631675824585899 is created" : {"countryCount":176,"countryCode":"+63","countryName":"Philippines","mobileNum":"1675824585899","cellNum":"+631675824585899","countryFname":"Auto_fName","countryLname":"Auto_lName","password":"555555","smsCode":"555555","type":"Collection Point","branchName":"BR_Auto_Name_1675824598628","location":"BR_Auto_location_1675824598628","email":"+631675824585899@plasticBank.com","plasticDetails":[{"plasticName":"Sibak","randValPerKg":"6.92","randKgInv":"3.40"},{"plasticName":"HDPE","randValPerKg":"9.18","randKgInv":"9.57"},{"plasticName":"PET","randValPerKg":"9.72","randKgInv":"5.69"}],"brType":"Collection Point"},
"Member-branch +631675824655987 is created" : {"countryCount":176,"countryCode":"+63","countryName":"Philippines","mobileNum":"1675824655987","cellNum":"+631675824655987","countryFname":"Auto_fName","countryLname":"Auto_lName","password":"555555","smsCode":"555555","type":"Collection Point","branchName":"BR_Auto_Name_1675824668561","location":"BR_Auto_location_1675824668561","email":"+631675824655987@plasticBank.com","plasticDetails":[{"plasticName":"Sibak","randValPerKg":"6.55","randKgInv":"5.08"},{"plasticName":"HDPE","randValPerKg":"8.17","randKgInv":"5.09"},{"plasticName":"PET","randValPerKg":"8.70","randKgInv":"9.97"}],"brType":"Collection Point"},
"Member-branch +631675824950326 is created" : {"countryCount":176,"countryCode":"+63","countryName":"Philippines","mobileNum":"1675824950326","cellNum":"+631675824950326","countryFname":"Auto_fName","countryLname":"Auto_lName","password":"555555","smsCode":"555555","type":"Collection Point","branchName":"BR_Auto_Name_1675824963200","location":"BR_Auto_location_1675824963200","email":"+631675824950326@plasticBank.com","plasticDetails":[{"plasticName":"Sibak","randValPerKg":"2.32","randKgInv":"4.78"},{"plasticName":"HDPE","randValPerKg":"5.44","randKgInv":"7.47"},{"plasticName":"PET","randValPerKg":"6.52","randKgInv":"8.75"}],"brType":"Collection Point"},
"Member-branch +631675825017627 is created" : {"countryCount":176,"countryCode":"+63","countryName":"Philippines","mobileNum":"1675825017627","cellNum":"+631675825017627","countryFname":"Auto_fName","countryLname":"Auto_lName","password":"555555","smsCode":"555555","type":"Collection Point","branchName":"BR_Auto_Name_1675825030238","location":"BR_Auto_location_1675825030238","email":"+631675825017627@plasticBank.com","plasticDetails":[{"plasticName":"Sibak","randValPerKg":"3.41","randKgInv":"6.78"},{"plasticName":"HDPE","randValPerKg":"9.17","randKgInv":"7.26"},{"plasticName":"PET","randValPerKg":"1.33","randKgInv":"5.48"}],"brType":"Collection Point"},
"Member-branch +631675859250211 is created" : {"countryCount":176,"countryCode":"+63","countryName":"Philippines","mobileNum":"1675859250211","cellNum":"+631675859250211","countryFname":"Auto_fName","countryLname":"Auto_lName","password":"555555","smsCode":"555555","type":"Collection Point","branchName":"BR_Auto_Name_1675859263229","location":"BR_Auto_location_1675859263229","email":"+631675859250211@plasticBank.com","plasticDetails":[{"plasticName":"Sibak","randValPerKg":"4.24","randKgInv":"5.91"},{"plasticName":"HDPE","randValPerKg":"4.38","randKgInv":"2.25"},{"plasticName":"PET","randValPerKg":"7.57","randKgInv":"4.23"}],"brType":"Collection Point"},
"Member-branch +631675859330823 is created" : {"countryCount":176,"countryCode":"+63","countryName":"Philippines","mobileNum":"1675859330823","cellNum":"+631675859330823","countryFname":"Auto_fName","countryLname":"Auto_lName","password":"555555","smsCode":"555555","type":"Collection Point","branchName":"BR_Auto_Name_1675859359977","location":"BR_Auto_location_1675859359977","email":"+631675859330823@plasticBank.com","plasticDetails":[{"plasticName":"Sibak","randValPerKg":"7.43","randKgInv":"6.12"},{"plasticName":"HDPE","randValPerKg":"1.64","randKgInv":"5.57"},{"plasticName":"PET","randValPerKg":"5.68","randKgInv":"2.52"}],"brType":"Collection Point"},
"Members of Collection Point +631675859250211" : [{"name":"Member_1675859502693","countryCode":"+63","memberNum":"1675859502693","countryCount":176,"brType":"Collection Point"},{"name":"Member_1675859530016","countryCode":"+63","memberNum":"1675859530016","countryCount":176,"brType":"Collection Point"},{"name":"Member_1675859556679","countryCode":"+63","memberNum":"1675859556679","countryCount":176,"brType":"Collection Point"},{"name":"Member_1675859580333","countryCode":"+63","memberNum":"1675859580333","countryCount":176,"brType":"Collection Point"},{"name":"Member_1675859594346","countryCode":"+63","memberNum":"1675859594346","countryCount":176,"brType":"Collection Point"},{"name":"Member_1675859620807","countryCode":"+63","memberNum":"1675859620807","countryCount":176,"brType":"Collection Point"},{"name":"Member_1675859645932","countryCode":"+63","memberNum":"1675859645932","countryCount":176,"brType":"Collection Point"},{"name":"Member_1675859669829","countryCode":"+63","memberNum":"1675859669829","countryCount":176,"brType":"Collection Point"},{"name":"Member_1675859696238","countryCode":"+63","memberNum":"1675859696238","countryCount":176,"brType":"Collection Point"},{"name":"Member_1675859708490","countryCode":"+63","memberNum":"1675859708490","countryCount":176,"brType":"Collection Point"}],
"Member-branch +631675860053649 is created" : {"countryCount":176,"countryCode":"+63","countryName":"Philippines","mobileNum":"1675860053649","cellNum":"+631675860053649","countryFname":"Auto_fName","countryLname":"Auto_lName","password":"555555","smsCode":"555555","type":"Collection Point","branchName":"BR_Auto_Name_1675860089461","location":"BR_Auto_location_1675860089461","email":"+631675860053649@plasticBank.com","plasticDetails":[{"plasticName":"Sibak","randValPerKg":"5.12","randKgInv":"8.89"},{"plasticName":"HDPE","randValPerKg":"1.32","randKgInv":"4.60"},{"plasticName":"PET","randValPerKg":"4.01","randKgInv":"1.20"}],"brType":"Collection Point"},
"Member-branch +631675860385614 is created" : {"countryCount":176,"countryCode":"+63","countryName":"Philippines","mobileNum":"1675860385614","cellNum":"+631675860385614","countryFname":"Auto_fName","countryLname":"Auto_lName","password":"555555","smsCode":"555555","type":"Collection Point","branchName":"BR_Auto_Name_1675860399500","location":"BR_Auto_location_1675860399500","email":"+631675860385614@plasticBank.com","plasticDetails":[{"plasticName":"Sibak","randValPerKg":"8.07","randKgInv":"6.69"},{"plasticName":"HDPE","randValPerKg":"9.26","randKgInv":"4.25"},{"plasticName":"PET","randValPerKg":"6.29","randKgInv":"6.66"}],"brType":"Collection Point"},
"Member-branch +631675860458807 is created" : {"countryCount":176,"countryCode":"+63","countryName":"Philippines","mobileNum":"1675860458807","cellNum":"+631675860458807","countryFname":"Auto_fName","countryLname":"Auto_lName","password":"555555","smsCode":"555555","type":"Collection Point","branchName":"BR_Auto_Name_1675860620029","location":"BR_Auto_location_1675860620029","email":"+631675860458807@plasticBank.com","plasticDetails":[{"plasticName":"Sibak","randValPerKg":"3.70","randKgInv":"2.51"},{"plasticName":"HDPE","randValPerKg":"8.99","randKgInv":"9.69"},{"plasticName":"PET","randValPerKg":"7.77","randKgInv":"5.07"}],"brType":"Collection Point"},
"Members of Collection Point +631675860385614" : [{"name":"Member_1675860796667","countryCode":"+63","memberNum":"1675860796667","countryCount":176,"brType":"Collection Point"},{"name":"Member_1675860826350","countryCode":"+63","memberNum":"1675860826350","countryCount":176,"brType":"Collection Point"}],
"Member-branch +631675861238260 is created" : {"countryCount":176,"countryCode":"+63","countryName":"Philippines","mobileNum":"1675861238260","cellNum":"+631675861238260","countryFname":"Auto_fName","countryLname":"Auto_lName","password":"555555","smsCode":"555555","type":"Collection Point","branchName":"BR_Auto_Name_1675861251313","location":"BR_Auto_location_1675861251313","email":"+631675861238260@plasticBank.com","plasticDetails":[{"plasticName":"Sibak","randValPerKg":"6.52","randKgInv":"8.84"},{"plasticName":"HDPE","randValPerKg":"6.29","randKgInv":"9.32"},{"plasticName":"PET","randValPerKg":"8.83","randKgInv":"2.27"}],"brType":"Collection Point"},
"Member-branch +631675861307398 is created" : {"countryCount":176,"countryCode":"+63","countryName":"Philippines","mobileNum":"1675861307398","cellNum":"+631675861307398","countryFname":"Auto_fName","countryLname":"Auto_lName","password":"555555","smsCode":"555555","type":"Collection Point","branchName":"BR_Auto_Name_1675861320792","location":"BR_Auto_location_1675861320792","email":"+631675861307398@plasticBank.com","plasticDetails":[{"plasticName":"Sibak","randValPerKg":"7.99","randKgInv":"9.56"},{"plasticName":"HDPE","randValPerKg":"7.92","randKgInv":"6.22"},{"plasticName":"PET","randValPerKg":"7.06","randKgInv":"3.37"}],"brType":"Collection Point"},
"Members of Collection Point +631675861238260" : [{"name":"Member_1675861389904","countryCode":"+63","memberNum":"1675861389904","countryCount":176,"brType":"Collection Point"},{"name":"Member_1675861403082","countryCode":"+63","memberNum":"1675861403082","countryCount":176,"brType":"Collection Point"}],
"Member-branch +631675862906000 is created" : {"countryCount":176,"countryCode":"+63","countryName":"Philippines","mobileNum":"1675862906000","cellNum":"+631675862906000","countryFname":"Auto_fName","countryLname":"Auto_lName","password":"555555","smsCode":"555555","type":"Collection Point","branchName":"BR_Auto_Name_1675863024009","location":"BR_Auto_location_1675863024009","email":"+631675862906000@plasticBank.com","plasticDetails":[{"plasticName":"Sibak","randValPerKg":"6.63","randKgInv":"6.87"},{"plasticName":"HDPE","randValPerKg":"9.12","randKgInv":"6.57"},{"plasticName":"PET","randValPerKg":"5.77","randKgInv":"6.19"}],"brType":"Collection Point"},
"Member-branch +631675863081422 is created" : {"countryCount":176,"countryCode":"+63","countryName":"Philippines","mobileNum":"1675863081422","cellNum":"+631675863081422","countryFname":"Auto_fName","countryLname":"Auto_lName","password":"555555","smsCode":"555555","type":"Collection Point","branchName":"BR_Auto_Name_1675863095435","location":"BR_Auto_location_1675863095435","email":"+631675863081422@plasticBank.com","plasticDetails":[{"plasticName":"Sibak","randValPerKg":"1.21","randKgInv":"7.78"},{"plasticName":"HDPE","randValPerKg":"4.77","randKgInv":"9.41"},{"plasticName":"PET","randValPerKg":"6.45","randKgInv":"6.77"}],"brType":"Collection Point"},
"Members of Collection Point +631675862906000" : [{"name":"Member_1675863166489","countryCode":"+63","memberNum":"1675863166489","countryCount":176,"brType":"Collection Point"},{"name":"Member_1675863180440","countryCode":"+63","memberNum":"1675863180440","countryCount":176,"brType":"Collection Point"}],
"Member-branch +631675863941244 is created" : {"countryCount":176,"countryCode":"+63","countryName":"Philippines","mobileNum":"1675863941244","cellNum":"+631675863941244","countryFname":"Auto_fName","countryLname":"Auto_lName","password":"555555","smsCode":"555555","type":"Collection Point","branchName":"BR_Auto_Name_1675863954103","location":"BR_Auto_location_1675863954103","email":"+631675863941244@plasticBank.com","plasticDetails":[{"plasticName":"Sibak","randValPerKg":"6.72","randKgInv":"1.61"},{"plasticName":"HDPE","randValPerKg":"8.38","randKgInv":"9.13"},{"plasticName":"PET","randValPerKg":"4.54","randKgInv":"7.57"}],"brType":"Collection Point"},
"Member-branch +631675864008758 is created" : {"countryCount":176,"countryCode":"+63","countryName":"Philippines","mobileNum":"1675864008758","cellNum":"+631675864008758","countryFname":"Auto_fName","countryLname":"Auto_lName","password":"555555","smsCode":"555555","type":"Collection Point","branchName":"BR_Auto_Name_1675864021997","location":"BR_Auto_location_1675864021997","email":"+631675864008758@plasticBank.com","plasticDetails":[{"plasticName":"Sibak","randValPerKg":"6.56","randKgInv":"3.18"},{"plasticName":"HDPE","randValPerKg":"6.69","randKgInv":"9.06"},{"plasticName":"PET","randValPerKg":"1.35","randKgInv":"7.08"}],"brType":"Collection Point"},
"Members of Collection Point +631675863941244" : [{"name":"Member_1675864090414","countryCode":"+63","memberNum":"1675864090414","countryCount":176,"brType":"Collection Point"},{"name":"Member_1675864103655","countryCode":"+63","memberNum":"1675864103655","countryCount":176,"brType":"Collection Point"}],
"Member-branch +631675864435197 is created" : {"countryCount":176,"countryCode":"+63","countryName":"Philippines","mobileNum":"1675864435197","cellNum":"+631675864435197","countryFname":"Auto_fName","countryLname":"Auto_lName","password":"555555","smsCode":"555555","type":"Collection Point","branchName":"BR_Auto_Name_1675864449133","location":"BR_Auto_location_1675864449133","email":"+631675864435197@plasticBank.com","plasticDetails":[{"plasticName":"Sibak","randValPerKg":"9.31","randKgInv":"1.65"},{"plasticName":"HDPE","randValPerKg":"2.78","randKgInv":"8.69"},{"plasticName":"PET","randValPerKg":"7.22","randKgInv":"2.99"}],"brType":"Collection Point"},
"Member-branch +631675864506391 is created" : {"countryCount":176,"countryCode":"+63","countryName":"Philippines","mobileNum":"1675864506391","cellNum":"+631675864506391","countryFname":"Auto_fName","countryLname":"Auto_lName","password":"555555","smsCode":"555555","type":"Collection Point","branchName":"BR_Auto_Name_1675864519796","location":"BR_Auto_location_1675864519796","email":"+631675864506391@plasticBank.com","plasticDetails":[{"plasticName":"Sibak","randValPerKg":"2.83","randKgInv":"2.75"},{"plasticName":"HDPE","randValPerKg":"5.04","randKgInv":"7.35"},{"plasticName":"PET","randValPerKg":"1.67","randKgInv":"4.86"}],"brType":"Collection Point"},
"Members of Collection Point +631675864435197" : [{"name":"Member_1675864587339","countryCode":"+63","memberNum":"1675864587339","countryCount":176,"brType":"Collection Point"},{"name":"Member_1675864600702","countryCode":"+63","memberNum":"1675864600702","countryCount":176,"brType":"Collection Point"}],
"Member-branch +631675864825194 is created" : {"countryCount":176,"countryCode":"+63","countryName":"Philippines","mobileNum":"1675864825194","cellNum":"+631675864825194","countryFname":"Auto_fName","countryLname":"Auto_lName","password":"555555","smsCode":"555555","type":"Collection Point","branchName":"BR_Auto_Name_1675864838492","location":"BR_Auto_location_1675864838492","email":"+631675864825194@plasticBank.com","plasticDetails":[{"plasticName":"Sibak","randValPerKg":"2.14","randKgInv":"5.17"},{"plasticName":"HDPE","randValPerKg":"7.22","randKgInv":"9.46"},{"plasticName":"PET","randValPerKg":"2.74","randKgInv":"5.16"}],"brType":"Collection Point"},
"Member-branch +631675864897123 is created" : {"countryCount":176,"countryCode":"+63","countryName":"Philippines","mobileNum":"1675864897123","cellNum":"+631675864897123","countryFname":"Auto_fName","countryLname":"Auto_lName","password":"555555","smsCode":"555555","type":"Collection Point","branchName":"BR_Auto_Name_1675864910356","location":"BR_Auto_location_1675864910356","email":"+631675864897123@plasticBank.com","plasticDetails":[{"plasticName":"Sibak","randValPerKg":"3.94","randKgInv":"3.29"},{"plasticName":"HDPE","randValPerKg":"9.12","randKgInv":"8.35"},{"plasticName":"PET","randValPerKg":"9.24","randKgInv":"2.67"}],"brType":"Collection Point"},
"Members of Collection Point +631675864825194" : [{"name":"Member_1675864979598","countryCode":"+63","memberNum":"1675864979598","countryCount":176,"brType":"Collection Point"},{"name":"Member_1675864993162","countryCode":"+63","memberNum":"1675864993162","countryCount":176,"brType":"Collection Point"}],
"Member-branch +631675866110601 is created" : {"countryCount":176,"countryCode":"+63","countryName":"Philippines","mobileNum":"1675866110601","cellNum":"+631675866110601","countryFname":"Auto_fName","countryLname":"Auto_lName","password":"555555","smsCode":"555555","type":"Collection Point","branchName":"BR_Auto_Name_1675866135036","location":"BR_Auto_location_1675866135036","email":"+631675866110601@plasticBank.com","plasticDetails":[{"plasticName":"Sibak","randValPerKg":"5.37","randKgInv":"9.30"},{"plasticName":"HDPE","randValPerKg":"4.40","randKgInv":"2.40"},{"plasticName":"PET","randValPerKg":"2.89","randKgInv":"5.37"}],"brType":"Collection Point"},
"Member-branch +631675866197310 is created" : {"countryCount":176,"countryCode":"+63","countryName":"Philippines","mobileNum":"1675866197310","cellNum":"+631675866197310","countryFname":"Auto_fName","countryLname":"Auto_lName","password":"555555","smsCode":"555555","type":"Collection Point","branchName":"BR_Auto_Name_1675866221520","location":"BR_Auto_location_1675866221520","email":"+631675866197310@plasticBank.com","plasticDetails":[{"plasticName":"Sibak","randValPerKg":"5.07","randKgInv":"8.22"},{"plasticName":"HDPE","randValPerKg":"9.83","randKgInv":"5.56"},{"plasticName":"PET","randValPerKg":"2.57","randKgInv":"7.61"}],"brType":"Collection Point"},
"Members of Collection Point +631675866110601" : [{"name":"Member_1675866303531","countryCode":"+63","memberNum":"1675866303531","countryCount":176,"brType":"Collection Point"},{"name":"Member_1675866323344","countryCode":"+63","memberNum":"1675866323344","countryCount":176,"brType":"Collection Point"}],
"Member-branch +631675867016892 is created" : {"countryCount":176,"countryCode":"+63","countryName":"Philippines","mobileNum":"1675867016892","cellNum":"+631675867016892","countryFname":"Auto_fName","countryLname":"Auto_lName","password":"555555","smsCode":"555555","type":"Collection Point","branchName":"BR_Auto_Name_1675867041148","location":"BR_Auto_location_1675867041148","email":"+631675867016892@plasticBank.com","plasticDetails":[{"plasticName":"Sibak","randValPerKg":"9.61","randKgInv":"9.78"},{"plasticName":"HDPE","randValPerKg":"4.53","randKgInv":"3.82"},{"plasticName":"PET","randValPerKg":"9.65","randKgInv":"4.25"}],"brType":"Collection Point"},
"Member-branch +631675867104817 is created" : {"countryCount":176,"countryCode":"+63","countryName":"Philippines","mobileNum":"1675867104817","cellNum":"+631675867104817","countryFname":"Auto_fName","countryLname":"Auto_lName","password":"555555","smsCode":"555555","type":"Collection Point","branchName":"BR_Auto_Name_1675867129077","location":"BR_Auto_location_1675867129077","email":"+631675867104817@plasticBank.com","plasticDetails":[{"plasticName":"Sibak","randValPerKg":"7.36","randKgInv":"3.31"},{"plasticName":"HDPE","randValPerKg":"8.01","randKgInv":"5.22"},{"plasticName":"PET","randValPerKg":"8.26","randKgInv":"8.24"}],"brType":"Collection Point"},
"Members of Collection Point +631675867016892" : [{"name":"Member_1675867204260","countryCode":"+63","memberNum":"1675867204260","countryCount":176,"brType":"Collection Point"},{"name":"Member_1675867224114","countryCode":"+63","memberNum":"1675867224114","countryCount":176,"brType":"Collection Point"}],
"Member-branch +631675867637347 is created" : {"countryCount":176,"countryCode":"+63","countryName":"Philippines","mobileNum":"1675867637347","cellNum":"+631675867637347","countryFname":"Auto_fName","countryLname":"Auto_lName","password":"555555","smsCode":"555555","type":"Collection Point","branchName":"BR_Auto_Name_1675867661733","location":"BR_Auto_location_1675867661733","email":"+631675867637347@plasticBank.com","plasticDetails":[{"plasticName":"Sibak","randValPerKg":"9.40","randKgInv":"9.07"},{"plasticName":"HDPE","randValPerKg":"2.67","randKgInv":"7.73"},{"plasticName":"PET","randValPerKg":"7.80","randKgInv":"7.30"}],"brType":"Collection Point"},
"Member-branch +631675867725616 is created" : {"countryCount":176,"countryCode":"+63","countryName":"Philippines","mobileNum":"1675867725616","cellNum":"+631675867725616","countryFname":"Auto_fName","countryLname":"Auto_lName","password":"555555","smsCode":"555555","type":"Collection Point","branchName":"BR_Auto_Name_1675867749935","location":"BR_Auto_location_1675867749935","email":"+631675867725616@plasticBank.com","plasticDetails":[{"plasticName":"Sibak","randValPerKg":"1.34","randKgInv":"4.14"},{"plasticName":"HDPE","randValPerKg":"4.25","randKgInv":"8.83"},{"plasticName":"PET","randValPerKg":"4.33","randKgInv":"6.74"}],"brType":"Collection Point"},
"Members of Collection Point +631675867637347" : [{"name":"Member_1675867823509","countryCode":"+63","memberNum":"1675867823509","countryCount":176,"brType":"Collection Point"},{"name":"Member_1675867843378","countryCode":"+63","memberNum":"1675867843378","countryCount":176,"brType":"Collection Point"}],
"Member-branch +631675868338147 is created" : {"countryCount":176,"countryCode":"+63","countryName":"Philippines","mobileNum":"1675868338147","cellNum":"+631675868338147","countryFname":"Auto_fName","countryLname":"Auto_lName","password":"555555","smsCode":"555555","type":"Collection Point","branchName":"BR_Auto_Name_1675868363025","location":"BR_Auto_location_1675868363025","email":"+631675868338147@plasticBank.com","plasticDetails":[{"plasticName":"Sibak","randValPerKg":"4.07","randKgInv":"6.13"},{"plasticName":"HDPE","randValPerKg":"2.49","randKgInv":"2.07"},{"plasticName":"PET","randValPerKg":"9.64","randKgInv":"7.15"}],"brType":"Collection Point"},
"Member-branch +631675868425950 is created" : {"countryCount":176,"countryCode":"+63","countryName":"Philippines","mobileNum":"1675868425950","cellNum":"+631675868425950","countryFname":"Auto_fName","countryLname":"Auto_lName","password":"555555","smsCode":"555555","type":"Collection Point","branchName":"BR_Auto_Name_1675868450255","location":"BR_Auto_location_1675868450255","email":"+631675868425950@plasticBank.com","plasticDetails":[{"plasticName":"Sibak","randValPerKg":"5.23","randKgInv":"2.77"},{"plasticName":"HDPE","randValPerKg":"3.75","randKgInv":"4.03"},{"plasticName":"PET","randValPerKg":"5.78","randKgInv":"7.86"}],"brType":"Collection Point"},
"Members of Collection Point +631675868338147" : [{"name":"Member_1675868525132","countryCode":"+63","memberNum":"1675868525132","countryCount":176,"brType":"Collection Point"},{"name":"Member_1675868545033","countryCode":"+63","memberNum":"1675868545033","countryCount":176,"brType":"Collection Point"}],
"Member-branch +631675868861886 is created" : {"countryCount":176,"countryCode":"+63","countryName":"Philippines","mobileNum":"1675868861886","cellNum":"+631675868861886","countryFname":"Auto_fName","countryLname":"Auto_lName","password":"555555","smsCode":"555555","type":"Collection Point","branchName":"BR_Auto_Name_1675868896439","location":"BR_Auto_location_1675868896439","email":"+631675868861886@plasticBank.com","plasticDetails":[{"plasticName":"Sibak","randValPerKg":"5.56","randKgInv":"8.01"},{"plasticName":"HDPE","randValPerKg":"7.00","randKgInv":"2.43"},{"plasticName":"PET","randValPerKg":"7.49","randKgInv":"6.50"}],"brType":"Collection Point"},
"Member-branch +631675869022096 is created" : {"countryCount":176,"countryCode":"+63","countryName":"Philippines","mobileNum":"1675869022096","cellNum":"+631675869022096","countryFname":"Auto_fName","countryLname":"Auto_lName","password":"555555","smsCode":"555555","type":"Collection Point","branchName":"BR_Auto_Name_1675869045867","location":"BR_Auto_location_1675869045867","email":"+631675869022096@plasticBank.com","plasticDetails":[{"plasticName":"Sibak","randValPerKg":"5.36","randKgInv":"8.17"},{"plasticName":"HDPE","randValPerKg":"6.19","randKgInv":"3.60"},{"plasticName":"PET","randValPerKg":"1.65","randKgInv":"1.24"}],"brType":"Collection Point"},
"Members of Collection Point +631675868861886" : [{"name":"Member_1675869124099","countryCode":"+63","memberNum":"1675869124099","countryCount":176,"brType":"Collection Point"},{"name":"Member_1675869152412","countryCode":"+63","memberNum":"1675869152412","countryCount":176,"brType":"Collection Point"}],
"Member-branch +631675869972932 is created" : {"countryCount":176,"countryCode":"+63","countryName":"Philippines","mobileNum":"1675869972932","cellNum":"+631675869972932","countryFname":"Auto_fName","countryLname":"Auto_lName","password":"555555","smsCode":"555555","type":"Collection Point","branchName":"BR_Auto_Name_1675869999001","location":"BR_Auto_location_1675869999001","email":"+631675869972932@plasticBank.com","plasticDetails":[{"plasticName":"Sibak","randValPerKg":"8.96","randKgInv":"5.47"},{"plasticName":"HDPE","randValPerKg":"9.70","randKgInv":"5.31"},{"plasticName":"PET","randValPerKg":"4.18","randKgInv":"1.33"}],"brType":"Collection Point"},
"Member-branch +631675870065153 is created" : {"countryCount":176,"countryCode":"+63","countryName":"Philippines","mobileNum":"1675870065153","cellNum":"+631675870065153","countryFname":"Auto_fName","countryLname":"Auto_lName","password":"555555","smsCode":"555555","type":"Collection Point","branchName":"BR_Auto_Name_1675870090323","location":"BR_Auto_location_1675870090323","email":"+631675870065153@plasticBank.com","plasticDetails":[{"plasticName":"Sibak","randValPerKg":"9.82","randKgInv":"6.01"},{"plasticName":"HDPE","randValPerKg":"8.65","randKgInv":"9.57"},{"plasticName":"PET","randValPerKg":"9.11","randKgInv":"8.09"}],"brType":"Collection Point"},
"Members of Collection Point +631675869972932" : [{"name":"Member_1675870169598","countryCode":"+63","memberNum":"1675870169598","countryCount":176,"brType":"Collection Point"},{"name":"Member_1675870189990","countryCode":"+63","memberNum":"1675870189990","countryCount":176,"brType":"Collection Point"}],
"Member-branch +631675870844240 is created" : {"countryCount":176,"countryCode":"+63","countryName":"Philippines","mobileNum":"1675870844240","cellNum":"+631675870844240","countryFname":"Auto_fName","countryLname":"Auto_lName","password":"555555","smsCode":"555555","type":"Collection Point","branchName":"BR_Auto_Name_1675870878614","location":"BR_Auto_location_1675870878614","email":"+631675870844240@plasticBank.com","plasticDetails":[{"plasticName":"Sibak","randValPerKg":"9.07","randKgInv":"6.00"},{"plasticName":"HDPE","randValPerKg":"5.16","randKgInv":"3.59"},{"plasticName":"PET","randValPerKg":"5.86","randKgInv":"7.08"}],"brType":"Collection Point"},
"Member-branch +631675871006047 is created" : {"countryCount":176,"countryCode":"+63","countryName":"Philippines","mobileNum":"1675871006047","cellNum":"+631675871006047","countryFname":"Auto_fName","countryLname":"Auto_lName","password":"555555","smsCode":"555555","type":"Collection Point","branchName":"BR_Auto_Name_1675871029679","location":"BR_Auto_location_1675871029679","email":"+631675871006047@plasticBank.com","plasticDetails":[{"plasticName":"Sibak","randValPerKg":"1.84","randKgInv":"1.70"},{"plasticName":"HDPE","randValPerKg":"4.47","randKgInv":"3.77"},{"plasticName":"PET","randValPerKg":"3.68","randKgInv":"2.77"}],"brType":"Collection Point"},
"Members of Collection Point +631675870844240" : [{"name":"Member_1675871109363","countryCode":"+63","memberNum":"1675871109363","countryCount":176,"brType":"Collection Point"},{"name":"Member_1675871134736","countryCode":"+63","memberNum":"1675871134736","countryCount":176,"brType":"Collection Point"}],
"Member-branch +631675873010829 is created" : {"countryCount":176,"countryCode":"+63","countryName":"Philippines","mobileNum":"1675873010829","cellNum":"+631675873010829","countryFname":"Auto_fName","countryLname":"Auto_lName","password":"555555","smsCode":"555555","type":"Collection Point","branchName":"BR_Auto_Name_1675873035186","location":"BR_Auto_location_1675873035186","email":"+631675873010829@plasticBank.com","plasticDetails":[{"plasticName":"Sibak","randValPerKg":"1.12","randKgInv":"4.53"},{"plasticName":"HDPE","randValPerKg":"6.99","randKgInv":"1.98"},{"plasticName":"PET","randValPerKg":"2.35","randKgInv":"8.70"}],"brType":"Collection Point"},
"Member-branch +631675873100276 is created" : {"countryCount":176,"countryCode":"+63","countryName":"Philippines","mobileNum":"1675873100276","cellNum":"+631675873100276","countryFname":"Auto_fName","countryLname":"Auto_lName","password":"555555","smsCode":"555555","type":"Collection Point","branchName":"BR_Auto_Name_1675873124478","location":"BR_Auto_location_1675873124478","email":"+631675873100276@plasticBank.com","plasticDetails":[{"plasticName":"Sibak","randValPerKg":"9.07","randKgInv":"3.05"},{"plasticName":"HDPE","randValPerKg":"7.87","randKgInv":"5.89"},{"plasticName":"PET","randValPerKg":"9.36","randKgInv":"1.37"}],"brType":"Collection Point"},
"Members of Collection Point +631675873010829" : [{"name":"Member_1675873205532","countryCode":"+63","memberNum":"1675873205532","countryCount":176,"brType":"Collection Point"},{"name":"Member_1675873231036","countryCode":"+63","memberNum":"1675873231036","countryCount":176,"brType":"Collection Point"}],
"Member-branch +631675904895057 is created" : {"countryCount":176,"countryCode":"+63","countryName":"Philippines","mobileNum":"1675904895057","cellNum":"+631675904895057","countryFname":"Auto_fName","countryLname":"Auto_lName","password":"555555","smsCode":"555555","type":"Collection Point","branchName":"BR_Auto_Name_1675904919291","location":"BR_Auto_location_1675904919291","email":"+631675904895057@plasticBank.com","plasticDetails":[{"plasticName":"Sibak","randValPerKg":"3.09","randKgInv":"3.33"},{"plasticName":"HDPE","randValPerKg":"4.99","randKgInv":"4.47"},{"plasticName":"PET","randValPerKg":"8.24","randKgInv":"1.24"}],"brType":"Collection Point"},
"Member-branch +631675904985572 is created" : {"countryCount":176,"countryCode":"+63","countryName":"Philippines","mobileNum":"1675904985572","cellNum":"+631675904985572","countryFname":"Auto_fName","countryLname":"Auto_lName","password":"555555","smsCode":"555555","type":"Collection Point","branchName":"BR_Auto_Name_1675905009809","location":"BR_Auto_location_1675905009809","email":"+631675904985572@plasticBank.com","plasticDetails":[{"plasticName":"Sibak","randValPerKg":"3.73","randKgInv":"4.74"},{"plasticName":"HDPE","randValPerKg":"8.76","randKgInv":"3.65"},{"plasticName":"PET","randValPerKg":"1.77","randKgInv":"7.66"}],"brType":"Collection Point"},
"Members of Collection Point +631675904895057" : [{"name":"Member_1675905146153","countryCode":"+63","memberNum":"1675905146153","countryCount":176,"brType":"Collection Point"},{"name":"Member_1675905165991","countryCode":"+63","memberNum":"1675905165991","countryCount":176,"brType":"Collection Point"}],
"Member-branch +631675905467877 is created" : {"countryCount":176,"countryCode":"+63","countryName":"Philippines","mobileNum":"1675905467877","cellNum":"+631675905467877","countryFname":"Auto_fName","countryLname":"Auto_lName","password":"555555","smsCode":"555555","type":"Collection Point","branchName":"BR_Auto_Name_1675905491210","location":"BR_Auto_location_1675905491210","email":"+631675905467877@plasticBank.com","plasticDetails":[{"plasticName":"Sibak","randValPerKg":"3.58","randKgInv":"7.40"},{"plasticName":"HDPE","randValPerKg":"8.73","randKgInv":"6.04"},{"plasticName":"PET","randValPerKg":"2.20","randKgInv":"1.88"}],"brType":"Collection Point"},
"Member-branch +631675905554855 is created" : {"countryCount":176,"countryCode":"+63","countryName":"Philippines","mobileNum":"1675905554855","cellNum":"+631675905554855","countryFname":"Auto_fName","countryLname":"Auto_lName","password":"555555","smsCode":"555555","type":"Collection Point","branchName":"BR_Auto_Name_1675905578262","location":"BR_Auto_location_1675905578262","email":"+631675905554855@plasticBank.com","plasticDetails":[{"plasticName":"Sibak","randValPerKg":"1.62","randKgInv":"9.18"},{"plasticName":"HDPE","randValPerKg":"4.36","randKgInv":"1.12"},{"plasticName":"PET","randValPerKg":"6.36","randKgInv":"1.03"}],"brType":"Collection Point"},
"Members of Collection Point +631675905467877" : [{"name":"Member_1675905656782","countryCode":"+63","memberNum":"1675905656782","countryCount":176,"brType":"Collection Point"},{"name":"Member_1675905676077","countryCode":"+63","memberNum":"1675905676077","countryCount":176,"brType":"Collection Point"}],
"Member-branch +631675906854396 is created" : {"countryCount":176,"countryCode":"+63","countryName":"Philippines","mobileNum":"1675906854396","cellNum":"+631675906854396","countryFname":"Auto_fName","countryLname":"Auto_lName","password":"555555","smsCode":"555555","type":"Collection Point","branchName":"BR_Auto_Name_1675906878616","location":"BR_Auto_location_1675906878616","email":"+631675906854396@plasticBank.com","plasticDetails":[{"plasticName":"Sibak","randValPerKg":"5.34","randKgInv":"7.51"},{"plasticName":"HDPE","randValPerKg":"7.93","randKgInv":"9.06"},{"plasticName":"PET","randValPerKg":"9.51","randKgInv":"8.95"}],"brType":"Collection Point"},
"Member-branch +631675906940771 is created" : {"countryCount":176,"countryCode":"+63","countryName":"Philippines","mobileNum":"1675906940771","cellNum":"+631675906940771","countryFname":"Auto_fName","countryLname":"Auto_lName","password":"555555","smsCode":"555555","type":"Collection Point","branchName":"BR_Auto_Name_1675906964972","location":"BR_Auto_location_1675906964972","email":"+631675906940771@plasticBank.com","plasticDetails":[{"plasticName":"Sibak","randValPerKg":"3.25","randKgInv":"5.78"},{"plasticName":"HDPE","randValPerKg":"5.82","randKgInv":"6.44"},{"plasticName":"PET","randValPerKg":"8.96","randKgInv":"4.09"}],"brType":"Collection Point"},
"Members of Collection Point +631675906854396" : [{"name":"Member_1675907068627","countryCode":"+63","memberNum":"1675907068627","countryCount":176,"brType":"Collection Point"},{"name":"Member_1675907088582","countryCode":"+63","memberNum":"1675907088582","countryCount":176,"brType":"Collection Point"}],
"Member-processor +631675907139096" : {"countryCount":176,"countryCode":"+63","countryName":"Philippines","mobileNum":"1675907139096","cellNum":"+631675907139096","countryFname":"Auto_fName","countryLname":"Auto_lName","password":"555555","smsCode":"555555","type":"Processor","processorName":"PR_Auto_1675907163267","location":"PR_Auto_location_1675907163267","email":"+631675907139096@plasticBank.com"},
"Member-branch +631675907928016 is created" : {"countryCount":176,"countryCode":"+63","countryName":"Philippines","mobileNum":"1675907928016","cellNum":"+631675907928016","countryFname":"Auto_fName","countryLname":"Auto_lName","password":"555555","smsCode":"555555","type":"Collection Point","branchName":"BR_Auto_Name_1675907951576","location":"BR_Auto_location_1675907951576","email":"+631675907928016@plasticBank.com","plasticDetails":[{"plasticName":"Sibak","randValPerKg":"5.20","randKgInv":"9.38"},{"plasticName":"HDPE","randValPerKg":"1.11","randKgInv":"2.11"},{"plasticName":"PET","randValPerKg":"8.99","randKgInv":"3.53"}],"brType":"Collection Point"},
"Member-branch +631675908019311 is created" : {"countryCount":176,"countryCode":"+63","countryName":"Philippines","mobileNum":"1675908019311","cellNum":"+631675908019311","countryFname":"Auto_fName","countryLname":"Auto_lName","password":"555555","smsCode":"555555","type":"Collection Point","branchName":"BR_Auto_Name_1675908043553","location":"BR_Auto_location_1675908043553","email":"+631675908019311@plasticBank.com","plasticDetails":[{"plasticName":"Sibak","randValPerKg":"4.33","randKgInv":"1.54"},{"plasticName":"HDPE","randValPerKg":"3.62","randKgInv":"6.86"},{"plasticName":"PET","randValPerKg":"1.91","randKgInv":"5.39"}],"brType":"Collection Point"},
"Members of Collection Point +631675907928016" : [{"name":"Member_1675908123796","countryCode":"+63","memberNum":"1675908123796","countryCount":176,"brType":"Collection Point"},{"name":"Member_1675908143761","countryCode":"+63","memberNum":"1675908143761","countryCount":176,"brType":"Collection Point"}],
"Member-processor +631675908201997" : {"countryCount":176,"countryCode":"+63","countryName":"Philippines","mobileNum":"1675908201997","cellNum":"+631675908201997","countryFname":"Auto_fName","countryLname":"Auto_lName","password":"555555","smsCode":"555555","type":"Processor","processorName":"PR_Auto_1675908226276","location":"PR_Auto_location_1675908226276","email":"+631675908201997@plasticBank.com"},
"Member-branch +631675908984763 is created" : {"countryCount":176,"countryCode":"+63","countryName":"Philippines","mobileNum":"1675908984763","cellNum":"+631675908984763","countryFname":"Auto_fName","countryLname":"Auto_lName","password":"555555","smsCode":"555555","type":"Collection Point","branchName":"BR_Auto_Name_1675909009085","location":"BR_Auto_location_1675909009085","email":"+631675908984763@plasticBank.com","plasticDetails":[{"plasticName":"Sibak","randValPerKg":"5.91","randKgInv":"3.33"},{"plasticName":"HDPE","randValPerKg":"8.27","randKgInv":"9.58"},{"plasticName":"PET","randValPerKg":"2.21","randKgInv":"2.23"}],"brType":"Collection Point"},
"Member-branch +631675909074106 is created" : {"countryCount":176,"countryCode":"+63","countryName":"Philippines","mobileNum":"1675909074106","cellNum":"+631675909074106","countryFname":"Auto_fName","countryLname":"Auto_lName","password":"555555","smsCode":"555555","type":"Collection Point","branchName":"BR_Auto_Name_1675909098639","location":"BR_Auto_location_1675909098639","email":"+631675909074106@plasticBank.com","plasticDetails":[{"plasticName":"Sibak","randValPerKg":"5.15","randKgInv":"8.44"},{"plasticName":"HDPE","randValPerKg":"8.84","randKgInv":"8.32"},{"plasticName":"PET","randValPerKg":"7.34","randKgInv":"1.45"}],"brType":"Collection Point"},
"Members of Collection Point +631675908984763" : [{"name":"Member_1675909177090","countryCode":"+63","memberNum":"1675909177090","countryCount":176,"brType":"Collection Point"},{"name":"Member_1675909196969","countryCode":"+63","memberNum":"1675909196969","countryCount":176,"brType":"Collection Point"}],
"Member-processor +631675909250322" : {"countryCount":176,"countryCode":"+63","countryName":"Philippines","mobileNum":"1675909250322","cellNum":"+631675909250322","countryFname":"Auto_fName","countryLname":"Auto_lName","password":"555555","smsCode":"555555","type":"Processor","processorName":"PR_Auto_1675909274488","location":"PR_Auto_location_1675909274488","email":"+631675909250322@plasticBank.com"},
"Member-branch +631675909656766 is created" : {"countryCount":176,"countryCode":"+63","countryName":"Philippines","mobileNum":"1675909656766","cellNum":"+631675909656766","countryFname":"Auto_fName","countryLname":"Auto_lName","password":"555555","smsCode":"555555","type":"Collection Point","branchName":"BR_Auto_Name_1675909681132","location":"BR_Auto_location_1675909681132","email":"+631675909656766@plasticBank.com","plasticDetails":[{"plasticName":"Sibak","randValPerKg":"3.23","randKgInv":"5.40"},{"plasticName":"HDPE","randValPerKg":"2.95","randKgInv":"1.76"},{"plasticName":"PET","randValPerKg":"7.52","randKgInv":"6.38"}],"brType":"Collection Point"},
"Member-branch +631675909742908 is created" : {"countryCount":176,"countryCode":"+63","countryName":"Philippines","mobileNum":"1675909742908","cellNum":"+631675909742908","countryFname":"Auto_fName","countryLname":"Auto_lName","password":"555555","smsCode":"555555","type":"Collection Point","branchName":"BR_Auto_Name_1675909767131","location":"BR_Auto_location_1675909767131","email":"+631675909742908@plasticBank.com","plasticDetails":[{"plasticName":"Sibak","randValPerKg":"5.30","randKgInv":"7.12"},{"plasticName":"HDPE","randValPerKg":"4.96","randKgInv":"7.07"},{"plasticName":"PET","randValPerKg":"4.06","randKgInv":"8.52"}],"brType":"Collection Point"},
"Members of Collection Point +631675909656766" : [{"name":"Member_1675909844796","countryCode":"+63","memberNum":"1675909844796","countryCount":176,"brType":"Collection Point"},{"name":"Member_1675909864677","countryCode":"+63","memberNum":"1675909864677","countryCount":176,"brType":"Collection Point"}],
"Member-processor +631675909920586" : {"countryCount":176,"countryCode":"+63","countryName":"Philippines","mobileNum":"1675909920586","cellNum":"+631675909920586","countryFname":"Auto_fName","countryLname":"Auto_lName","password":"555555","smsCode":"555555","type":"Processor","processorName":"PR_Auto_1675909944701","location":"PR_Auto_location_1675909944701","email":"+631675909920586@plasticBank.com"},
"Member-branch +631675910392538 is created" : {"countryCount":176,"countryCode":"+63","countryName":"Philippines","mobileNum":"1675910392538","cellNum":"+631675910392538","countryFname":"Auto_fName","countryLname":"Auto_lName","password":"555555","smsCode":"555555","type":"Collection Point","branchName":"BR_Auto_Name_1675910415913","location":"BR_Auto_location_1675910415913","email":"+631675910392538@plasticBank.com","plasticDetails":[{"plasticName":"Sibak","randValPerKg":"8.21","randKgInv":"3.53"},{"plasticName":"HDPE","randValPerKg":"5.76","randKgInv":"6.36"},{"plasticName":"PET","randValPerKg":"8.17","randKgInv":"9.85"}],"brType":"Collection Point"},
"Member-branch +631675910479139 is created" : {"countryCount":176,"countryCode":"+63","countryName":"Philippines","mobileNum":"1675910479139","cellNum":"+631675910479139","countryFname":"Auto_fName","countryLname":"Auto_lName","password":"555555","smsCode":"555555","type":"Collection Point","branchName":"BR_Auto_Name_1675910502468","location":"BR_Auto_location_1675910502468","email":"+631675910479139@plasticBank.com","plasticDetails":[{"plasticName":"Sibak","randValPerKg":"6.77","randKgInv":"3.63"},{"plasticName":"HDPE","randValPerKg":"6.11","randKgInv":"7.56"},{"plasticName":"PET","randValPerKg":"5.47","randKgInv":"4.79"}],"brType":"Collection Point"},
"Members of Collection Point +631675910392538" : [{"name":"Member_1675910585427","countryCode":"+63","memberNum":"1675910585427","countryCount":176,"brType":"Collection Point"},{"name":"Member_1675910604756","countryCode":"+63","memberNum":"1675910604756","countryCount":176,"brType":"Collection Point"}],
"Member-processor +631675910660616" : {"countryCount":176,"countryCode":"+63","countryName":"Philippines","mobileNum":"1675910660616","cellNum":"+631675910660616","countryFname":"Auto_fName","countryLname":"Auto_lName","password":"555555","smsCode":"555555","type":"Processor","processorName":"PR_Auto_1675910683963","location":"PR_Auto_location_1675910683963","email":"+631675910660616@plasticBank.com"},
"Member-branch +631675911282470 is created" : {"countryCount":176,"countryCode":"+63","countryName":"Philippines","mobileNum":"1675911282470","cellNum":"+631675911282470","countryFname":"Auto_fName","countryLname":"Auto_lName","password":"555555","smsCode":"555555","type":"Collection Point","branchName":"BR_Auto_Name_1675911305875","location":"BR_Auto_location_1675911305875","email":"+631675911282470@plasticBank.com","plasticDetails":[{"plasticName":"Sibak","randValPerKg":"8.02","randKgInv":"9.55"},{"plasticName":"HDPE","randValPerKg":"8.38","randKgInv":"9.01"},{"plasticName":"PET","randValPerKg":"9.23","randKgInv":"1.93"}],"brType":"Collection Point"},
"Member-branch +631675911370483 is created" : {"countryCount":176,"countryCode":"+63","countryName":"Philippines","mobileNum":"1675911370483","cellNum":"+631675911370483","countryFname":"Auto_fName","countryLname":"Auto_lName","password":"555555","smsCode":"555555","type":"Collection Point","branchName":"BR_Auto_Name_1675911393849","location":"BR_Auto_location_1675911393849","email":"+631675911370483@plasticBank.com","plasticDetails":[{"plasticName":"Sibak","randValPerKg":"6.21","randKgInv":"7.61"},{"plasticName":"HDPE","randValPerKg":"8.73","randKgInv":"1.57"},{"plasticName":"PET","randValPerKg":"7.72","randKgInv":"5.61"}],"brType":"Collection Point"},
"Members of Collection Point +631675911282470" : [{"name":"Member_1675911473571","countryCode":"+63","memberNum":"1675911473571","countryCount":176,"brType":"Collection Point"},{"name":"Member_1675911492894","countryCode":"+63","memberNum":"1675911492894","countryCount":176,"brType":"Collection Point"}],
"Member-processor +631675911543337" : {"countryCount":176,"countryCode":"+63","countryName":"Philippines","mobileNum":"1675911543337","cellNum":"+631675911543337","countryFname":"Auto_fName","countryLname":"Auto_lName","password":"555555","smsCode":"555555","type":"Processor","processorName":"PR_Auto_1675911566599","location":"PR_Auto_location_1675911566599","email":"+631675911543337@plasticBank.com"},
"Member-branch +631675912252722 is created" : {"countryCount":176,"countryCode":"+63","countryName":"Philippines","mobileNum":"1675912252722","cellNum":"+631675912252722","countryFname":"Auto_fName","countryLname":"Auto_lName","password":"555555","smsCode":"555555","type":"Collection Point","branchName":"BR_Auto_Name_1675912276046","location":"BR_Auto_location_1675912276046","email":"+631675912252722@plasticBank.com","plasticDetails":[{"plasticName":"Sibak","randValPerKg":"1.22","randKgInv":"7.83"},{"plasticName":"HDPE","randValPerKg":"7.07","randKgInv":"2.09"},{"plasticName":"PET","randValPerKg":"4.22","randKgInv":"7.73"}],"brType":"Collection Point"},
"Member-branch +631675912342200 is created" : {"countryCount":176,"countryCode":"+63","countryName":"Philippines","mobileNum":"1675912342200","cellNum":"+631675912342200","countryFname":"Auto_fName","countryLname":"Auto_lName","password":"555555","smsCode":"555555","type":"Collection Point","branchName":"BR_Auto_Name_1675912365479","location":"BR_Auto_location_1675912365479","email":"+631675912342200@plasticBank.com","plasticDetails":[{"plasticName":"Sibak","randValPerKg":"4.44","randKgInv":"6.27"},{"plasticName":"HDPE","randValPerKg":"8.02","randKgInv":"3.88"},{"plasticName":"PET","randValPerKg":"5.00","randKgInv":"5.76"}],"brType":"Collection Point"},
"Members of Collection Point +631675912252722" : [{"name":"Member_1675912468622","countryCode":"+63","memberNum":"1675912468622","countryCount":176,"brType":"Collection Point"},{"name":"Member_1675912487918","countryCode":"+63","memberNum":"1675912487918","countryCount":176,"brType":"Collection Point"}],
"Member-processor +631675912539920" : {"countryCount":176,"countryCode":"+63","countryName":"Philippines","mobileNum":"1675912539920","cellNum":"+631675912539920","countryFname":"Auto_fName","countryLname":"Auto_lName","password":"555555","smsCode":"555555","type":"Processor","processorName":"PR_Auto_1675912563186","location":"PR_Auto_location_1675912563186","email":"+631675912539920@plasticBank.com"},
