"Collection Point branch +931674648516559 transacts with his members " : [{"mem":{"name":"Member_1674648694470","countryCode":"+93","memberNum":"1674648694470","countryCount":0,"brType":"Collection Point"},"weight":"4.78"},{"mem":{"name":"Member_1674648706526","countryCode":"+93","memberNum":"1674648706526","countryCount":0,"brType":"Collection Point"},"weight":"1.46"},{"mem":{"name":"Member_1674648718112","countryCode":"+93","memberNum":"1674648718112","countryCount":0,"brType":"Collection Point"},"weight":"4.83"},{"mem":{"name":"Member_1674648729605","countryCode":"+93","memberNum":"1674648729605","countryCount":0,"brType":"Collection Point"},"weight":"4.71"},{"mem":{"name":"Member_1674648741127","countryCode":"+93","memberNum":"1674648741127","countryCount":0,"brType":"Collection Point"},"weight":"6.98"},{"mem":{"name":"Member_1674648753157","countryCode":"+93","memberNum":"1674648753157","countryCount":0,"brType":"Collection Point"},"weight":"9.21"},{"mem":{"name":"Member_1674648764661","countryCode":"+93","memberNum":"1674648764661","countryCount":0,"brType":"Collection Point"},"weight":"9.16"},{"mem":{"name":"Member_1674648776640","countryCode":"+93","memberNum":"1674648776640","countryCount":0,"brType":"Collection Point"},"weight":"1.06"},{"mem":{"name":"Member_1674648789102","countryCode":"+93","memberNum":"1674648789102","countryCount":0,"brType":"Collection Point"},"weight":"9.05"},{"mem":{"name":"Member_1674648801547","countryCode":"+93","memberNum":"1674648801547","countryCount":0,"brType":"Collection Point"},"weight":"2.4"}],
"Collection Point branch +931674649120621 transacts with his members " : [{"mem":{"name":"Member_1674649301467","countryCode":"+93","memberNum":"1674649301467","countryCount":0,"brType":"Collection Point"},"weight":"7.56"},{"mem":{"name":"Member_1674649314214","countryCode":"+93","memberNum":"1674649314214","countryCount":0,"brType":"Collection Point"},"weight":"7.6"},{"mem":{"name":"Member_1674649326243","countryCode":"+93","memberNum":"1674649326243","countryCount":0,"brType":"Collection Point"},"weight":"6.99"},{"mem":{"name":"Member_1674649338202","countryCode":"+93","memberNum":"1674649338202","countryCount":0,"brType":"Collection Point"},"weight":"9.36"},{"mem":{"name":"Member_1674649349751","countryCode":"+93","memberNum":"1674649349751","countryCount":0,"brType":"Collection Point"},"weight":"7.21"},{"mem":{"name":"Member_1674649361346","countryCode":"+93","memberNum":"1674649361346","countryCount":0,"brType":"Collection Point"},"weight":"3.47"},{"mem":{"name":"Member_1674649373293","countryCode":"+93","memberNum":"1674649373293","countryCount":0,"brType":"Collection Point"},"weight":"4.21"},{"mem":{"name":"Member_1674649385289","countryCode":"+93","memberNum":"1674649385289","countryCount":0,"brType":"Collection Point"},"weight":"8.12"},{"mem":{"name":"Member_1674649396718","countryCode":"+93","memberNum":"1674649396718","countryCount":0,"brType":"Collection Point"},"weight":"3.51"},{"mem":{"name":"Member_1674649408281","countryCode":"+93","memberNum":"1674649408281","countryCount":0,"brType":"Collection Point"},"weight":"7.64"}],
"Collection Point branch +931674649210337 transacts with first branch" : [{"cellNum":"+931674649120621","weight":"1.72"}],
"Collection Point branch +931674649885918 transacts with his members" : [{"mem":{"name":"Member_1674650112415","countryCode":"+93","memberNum":"1674650112415","countryCount":0,"brType":"Collection Point"},"weight":"6.43"},{"mem":{"name":"Member_1674650124464","countryCode":"+93","memberNum":"1674650124464","countryCount":0,"brType":"Collection Point"},"weight":"1.83"},{"mem":{"name":"Member_1674650136488","countryCode":"+93","memberNum":"1674650136488","countryCount":0,"brType":"Collection Point"},"weight":"9.65"},{"mem":{"name":"Member_1674650148067","countryCode":"+93","memberNum":"1674650148067","countryCount":0,"brType":"Collection Point"},"weight":"7.4"},{"mem":{"name":"Member_1674650159597","countryCode":"+93","memberNum":"1674650159597","countryCount":0,"brType":"Collection Point"},"weight":"4.86"},{"mem":{"name":"Member_1674650171560","countryCode":"+93","memberNum":"1674650171560","countryCount":0,"brType":"Collection Point"},"weight":"4.82"},{"mem":{"name":"Member_1674650183587","countryCode":"+93","memberNum":"1674650183587","countryCount":0,"brType":"Collection Point"},"weight":"7.08"},{"mem":{"name":"Member_1674650195141","countryCode":"+93","memberNum":"1674650195141","countryCount":0,"brType":"Collection Point"},"weight":"5.16"},{"mem":{"name":"Member_1674650206664","countryCode":"+93","memberNum":"1674650206664","countryCount":0,"brType":"Collection Point"},"weight":"4.35"},{"mem":{"name":"Member_1674650218200","countryCode":"+93","memberNum":"1674650218200","countryCount":0,"brType":"Collection Point"},"weight":"4.58"}],
"Collection Point branch +931674649976371 transacts with first branch" : [{"cellNum":"+931674649885918","weight":"4.15"}],
"Collection Point branch +931674650574469 transacts with his members" : [{"mem":{"name":"Member_1674650764630","countryCode":"+93","memberNum":"1674650764630","countryCount":0,"brType":"Collection Point"},"weight":"7.36"},{"mem":{"name":"Member_1674650776760","countryCode":"+93","memberNum":"1674650776760","countryCount":0,"brType":"Collection Point"},"weight":"7.22"},{"mem":{"name":"Member_1674650788252","countryCode":"+93","memberNum":"1674650788252","countryCount":0,"brType":"Collection Point"},"weight":"4.7"},{"mem":{"name":"Member_1674650799832","countryCode":"+93","memberNum":"1674650799832","countryCount":0,"brType":"Collection Point"},"weight":"8.87"},{"mem":{"name":"Member_1674650811413","countryCode":"+93","memberNum":"1674650811413","countryCount":0,"brType":"Collection Point"},"weight":"6.52"},{"mem":{"name":"Member_1674650822873","countryCode":"+93","memberNum":"1674650822873","countryCount":0,"brType":"Collection Point"},"weight":"7.28"},{"mem":{"name":"Member_1674650834466","countryCode":"+93","memberNum":"1674650834466","countryCount":0,"brType":"Collection Point"},"weight":"9.42"},{"mem":{"name":"Member_1674650846400","countryCode":"+93","memberNum":"1674650846400","countryCount":0,"brType":"Collection Point"},"weight":"1.87"},{"mem":{"name":"Member_1674650857861","countryCode":"+93","memberNum":"1674650857861","countryCount":0,"brType":"Collection Point"},"weight":"1.44"},{"mem":{"name":"Member_1674650869312","countryCode":"+93","memberNum":"1674650869312","countryCount":0,"brType":"Collection Point"},"weight":"1.77"}],
"Collection Point branch +931674650663817 transacts with first branch" : [{"cellNum":"+931674650574469","weight":"6.18"}],




"Collection Point branch +631675158174499 transacts with his members" : [{"mem":{"name":"Member_1675158256589","countryCode":"+63","memberNum":"1675158256589","countryCount":176,"brType":"Collection Point"},"weight":"2.92"}],
"Collection Point branch +631675158761898 transacts with his members" : [{"mem":{"name":"Member_1675158836332","countryCode":"+63","memberNum":"1675158836332","countryCount":176,"brType":"Collection Point"},"weight":"4.93"}],
"Collection Point branch +631675158761898 transacts with first branch" : [{"cellNum":"+631675158761898","weight":"1.17"}],
"Collection Point branch +631675328736139 transacts with his members" : [{"mem":{"countryCount":176,"countryCode":"+63","countryName":"Philippines","mobileNum":"1675328736139","cellNum":"+631675328736139","countryFname":"Auto_fName","countryLname":"Auto_lName","password":"555555","smsCode":"555555","type":"Collection Point","branchName":"BR_Auto_Name_1675328744701","location":"BR_Auto_location_1675328744701","email":"+631675328736139@plasticBank.com","plasticDetails":[{"plasticName":"Sibak","randValPerKg":"1.17","randKgInv":"1.78"},{"plasticName":"HDPE","randValPerKg":"1.09","randKgInv":"3.79"},{"plasticName":"PET","randValPerKg":"1.44","randKgInv":"9.98"}],"brType":"Collection Point"},"weight":"7.32"}],
"Collection Point branch +631675328736139 transacts with his members" : [{"mem":{"countryCount":176,"countryCode":"+63","countryName":"Philippines","mobileNum":"1675328736139","cellNum":"+631675328736139","countryFname":"Auto_fName","countryLname":"Auto_lName","password":"555555","smsCode":"555555","type":"Collection Point","branchName":"BR_Auto_Name_1675328744701","location":"BR_Auto_location_1675328744701","email":"+631675328736139@plasticBank.com","plasticDetails":[{"plasticName":"Sibak","randValPerKg":"1.17","randKgInv":"1.78"},{"plasticName":"HDPE","randValPerKg":"1.09","randKgInv":"3.79"},{"plasticName":"PET","randValPerKg":"1.44","randKgInv":"9.98"}],"brType":"Collection Point"},"weight":"2.51"}],
"Collection Point branch +631675328736139 transacts with his members" : [{"mem":{"countryCount":176,"countryCode":"+63","countryName":"Philippines","mobileNum":"1675328736139","cellNum":"+631675328736139","countryFname":"Auto_fName","countryLname":"Auto_lName","password":"555555","smsCode":"555555","type":"Collection Point","branchName":"BR_Auto_Name_1675328744701","location":"BR_Auto_location_1675328744701","email":"+631675328736139@plasticBank.com","plasticDetails":[{"plasticName":"Sibak","randValPerKg":"1.17","randKgInv":"1.78"},{"plasticName":"HDPE","randValPerKg":"1.09","randKgInv":"3.79"},{"plasticName":"PET","randValPerKg":"1.44","randKgInv":"9.98"}],"brType":"Collection Point"},"weight":"9.09"}],
"Collection Point branch +631675352682392 transacts with his members" : [],
"Processor +631675353792702 transacts with 2nd branch" : [{"cellNum":"+631675353792702","weight":"4.12"}],
"Collection Point branch +631675359258195 transacts with his members" : [],
"Collection Point branch +631675359660437 transacts with his members" : [],
"Collection Point branch +931675784411996 transacts with his members" : [{"mem":{"name":"Member_1675784890818","countryCode":"+93","memberNum":"1675784890818","countryCount":0,"brType":"Collection Point"},"weight":"1.33"},{"mem":{"name":"Member_1675784917441","countryCode":"+93","memberNum":"1675784917441","countryCount":0,"brType":"Collection Point"},"weight":"1.02"},{"mem":{"name":"Member_1675784941291","countryCode":"+93","memberNum":"1675784941291","countryCount":0,"brType":"Collection Point"},"weight":"5.08"},{"mem":{"name":"Member_1675784969454","countryCode":"+93","memberNum":"1675784969454","countryCount":0,"brType":"Collection Point"},"weight":"1.06"},{"mem":{"name":"Member_1675784998641","countryCode":"+93","memberNum":"1675784998641","countryCount":0,"brType":"Collection Point"},"weight":"4.46"},{"mem":{"name":"Member_1675785024905","countryCode":"+93","memberNum":"1675785024905","countryCount":0,"brType":"Collection Point"},"weight":"9.54"},{"mem":{"name":"Member_1675785051064","countryCode":"+93","memberNum":"1675785051064","countryCount":0,"brType":"Collection Point"},"weight":"7.96"},{"mem":{"name":"Member_1675785078275","countryCode":"+93","memberNum":"1675785078275","countryCount":0,"brType":"Collection Point"},"weight":"8.59"},{"mem":{"name":"Member_1675785103532","countryCode":"+93","memberNum":"1675785103532","countryCount":0,"brType":"Collection Point"},"weight":"4.31"},{"mem":{"name":"Member_1675785122820","countryCode":"+93","memberNum":"1675785122820","countryCount":0,"brType":"Collection Point"},"weight":"7.13"}],
"Collection Point branch +631675823345565 transacts with first branch" : [{"cellNum":"+631675823345565","weight":"3.13"}],
"Collection Point branch +631675822795281 transacts with first branch" : [{"cellNum":"+631675822795281","weight":"1.26"}],
"Collection Point branch +631675861238260 transacts with his members" : [],
"Collection Point branch +631675861307398 transacts with first branch" : [{"cellNum":"+631675861307398","weight":"2.82"}],
"Collection Point branch +631675861238260 transacts with first branch" : [{"cellNum":"+631675861238260","weight":"6.26"}],
"Collection Point branch +631675866110601 transacts with his members" : [],
"Collection Point branch +631675870844240 transacts with his members" : [{"mem":{"name":"Member_1675871109363","countryCode":"+63","memberNum":"1675871109363","countryCount":176,"brType":"Collection Point"},"weight":"8.73"},{"mem":{"name":"Member_1675871134736","countryCode":"+63","memberNum":"1675871134736","countryCount":176,"brType":"Collection Point"},"weight":"2.99"}],
"Collection Point branch +631675873100276 transacts with first branch" : [{"cellNum":"+631675873100276","weight":"9.27"}],
"Collection Point branch +631675873010829 transacts with first branch" : [{"cellNum":"+631675873010829","weight":"8.07"}],
"Collection Point branch +631675905554855 transacts with first branch" : [{"cellNum":"+631675905554855","weight":"1.98"}],
"Collection Point branch +631675905467877 transacts with first branch" : [{"cellNum":"+631675905467877","weight":"6.24"}],
"Processor +631675907139096 transacts with 2nd branch" : [{"cellNum":"+631675906854396","weight":"3.07"}],
"Collection Point branch +631675911282470 transacts with his members" : [{"mem":{"name":"Member_1675911473571","countryCode":"+63","memberNum":"1675911473571","countryCount":176,"brType":"Collection Point"},"weight":"5.04"},{"mem":{"name":"Member_1675911492894","countryCode":"+63","memberNum":"1675911492894","countryCount":176,"brType":"Collection Point"},"weight":"9.97"}],
"Collection Point branch +631675911370483 transacts with first branch" : [{"cellNum":"+631675911370483","weight":"2.26"}],
"Collection Point branch +631675911282470 transacts with first branch" : [{"cellNum":"+631675911282470","weight":"6.89"}],
"Processor +631675911543337 transacts with 2nd branch" : [{"cellNum":"+631675911282470","weight":"2.85"}],
"Collection Point branch +631675912252722 transacts with his members" : [{"mem":{"name":"Member_1675912468622","countryCode":"+63","memberNum":"1675912468622","countryCount":176,"brType":"Collection Point"},"weight":"1.19"},{"mem":{"name":"Member_1675912487918","countryCode":"+63","memberNum":"1675912487918","countryCount":176,"brType":"Collection Point"},"weight":"9.85"}],
"Collection Point branch +631675912342200 transacts with first branch" : [{"cellNum":"+631675912342200","weight":"9.56"}],
"Collection Point branch +631675912252722 transacts with first branch" : [{"cellNum":"+631675912252722","weight":"5.43"}],
"Processor +631675912539920 transacts with 2nd branch" : [{"cellNum":"+631675912252722","weight":"9.07"}],
